[
{
  "model": "sessions.session",
  "pk": "1tql0hwzwkg0gyqakgj70ns1vrdwlm2v",
  "fields": {
    "session_data": ".eJxVjDsOwjAQBe_iGln-O6GkzxmsXe8KB5AtxUmFuDuJlALaNzPvLRJsa0lb5yXNJK5Ci8vvhpCfXA9AD6j3JnOr6zKjPBR50i6nRvy6ne7fQYFe9jqQVR6VVVGB4RAjGIfKw-isDxp0Jhu1Q6dDHEZlkDl4GiB4Q-z2QHy-sao2zA:1qfNA6:TcTaX_thGjdkaFOKpQNXTdTxCb3xQgRlXlyM3wg16VA",
    "expire_date": "2023-09-24T16:19:50.459Z"
  }
},
{
  "model": "sessions.session",
  "pk": "p79jfz8smhtdv53aaongrvwov8qpcxcl",
  "fields": {
    "session_data": ".eJxVjDsOwjAQBe_iGln-O6GkzxmsXe8KB5AtxUmFuDuJlALaNzPvLRJsa0lb5yXNJK5Ci8vvhpCfXA9AD6j3JnOr6zKjPBR50i6nRvy6ne7fQYFe9jqQVR6VVVGB4RAjGIfKw-isDxp0Jhu1Q6dDHEZlkDl4GiB4Q-z2QHy-sao2zA:1qiKEo:un-gSafpyKlAPNAh3QsydckU3aMjLtfdlssC6o6SILU",
    "expire_date": "2023-10-02T19:48:54.977Z"
  }
},
{
  "model": "sessions.session",
  "pk": "rtg7jld0zdv41hsj6efqzjvuwmx1g68y",
  "fields": {
    "session_data": ".eJxVjMsOwiAQRf-FtSE8BgSX7v0GwjAgVUOT0q6M_y5NutDtPefcNwtxW2vYel7CROzCFDv9bhjTM7cd0CO2-8zT3NZlQr4r_KCd32bKr-vh_h3U2OuoRTkLhQKKLUBakTQgPUVnDapI4CRaC04NKXnlvfBOGgRAPbDNWrPPF78CNqk:1qjFXT:CEtShYX8xwekNVlmdgv4dPFF5ikzszHbaB1ty9S6Nb4",
    "expire_date": "2023-10-05T08:59:59.037Z"
  }
},
{
  "model": "sessions.session",
  "pk": "sqm2zinavn1s6kzc9hmx9o0o1dkygb5s",
  "fields": {
    "session_data": ".eJxVjDsOwjAQBe_iGln-O6GkzxmsXe8KB5AtxUmFuDuJlALaNzPvLRJsa0lb5yXNJK5Ci8vvhpCfXA9AD6j3JnOr6zKjPBR50i6nRvy6ne7fQYFe9jqQVR6VVVGB4RAjGIfKw-isDxp0Jhu1Q6dDHEZlkDl4GiB4Q-z2QHy-sao2zA:1qjlDl:4zlGqKuOgxpXS67vx75FhIu7WakgySD4eak812GXwUw",
    "expire_date": "2023-10-06T18:49:45.951Z"
  }
},
{
  "model": "sessions.session",
  "pk": "xeqxym88ak3rdgwcf1cug6zae9ya8rrk",
  "fields": {
    "session_data": ".eJxVjDsOwjAQBe_iGln-O6GkzxmsXe8KB5AtxUmFuDuJlALaNzPvLRJsa0lb5yXNJK5Ci8vvhpCfXA9AD6j3JnOr6zKjPBR50i6nRvy6ne7fQYFe9jqQVR6VVVGB4RAjGIfKw-isDxp0Jhu1Q6dDHEZlkDl4GiB4Q-z2QHy-sao2zA:1qeBgH:AsCviZx3rkma8DkNEkIM_zKeop0VdXX-D1oyH4h-lHk",
    "expire_date": "2023-09-21T09:52:09.062Z"
  }
},
{
  "model": "sites.site",
  "fields": {
    "domain": "example.com",
    "name": "example.com"
  }
},
{
  "model": "vocabulary.tag",
  "pk": 1,
  "fields": {
    "name": "курс лингволео"
  }
},
{
  "model": "vocabulary.tag",
  "pk": 2,
  "fields": {
    "name": "легкое"
  }
},
{
  "model": "vocabulary.tag",
  "pk": 4,
  "fields": {
    "name": "for job"
  }
},
{
  "model": "vocabulary.tag",
  "pk": 5,
  "fields": {
    "name": "разговорное"
  }
},
{
  "model": "vocabulary.type",
  "pk": 1,
  "fields": {
    "name": "Noun",
    "slug": "noun",
    "sorting": 3
  }
},
{
  "model": "vocabulary.type",
  "pk": 2,
  "fields": {
    "name": "Verb",
    "slug": "verb",
    "sorting": 3
  }
},
{
  "model": "vocabulary.type",
  "pk": 3,
  "fields": {
    "name": "Adjective",
    "slug": "adject",
    "sorting": 3
  }
},
{
  "model": "vocabulary.type",
  "pk": 4,
  "fields": {
    "name": "Adverb",
    "slug": "adverb",
    "sorting": 2
  }
},
{
  "model": "vocabulary.type",
  "pk": 5,
  "fields": {
    "name": "Pronoun",
    "slug": "pronoun",
    "sorting": 1
  }
},
{
  "model": "vocabulary.type",
  "pk": 6,
  "fields": {
    "name": "Preposition",
    "slug": "prepos",
    "sorting": 2
  }
},
{
  "model": "vocabulary.type",
  "pk": 7,
  "fields": {
    "name": "Union",
    "slug": "union",
    "sorting": 1
  }
},
{
  "model": "vocabulary.type",
  "pk": 8,
  "fields": {
    "name": "Particle",
    "slug": "particle",
    "sorting": 1
  }
},
{
  "model": "vocabulary.type",
  "pk": 9,
  "fields": {
    "name": "Participle",
    "slug": "participle",
    "sorting": 2
  }
},
{
  "model": "vocabulary.type",
  "pk": 10,
  "fields": {
    "name": "Gerund",
    "slug": "gerund",
    "sorting": 2
  }
},
{
  "model": "vocabulary.type",
  "pk": 11,
  "fields": {
    "name": "Article",
    "slug": "article",
    "sorting": 1
  }
},
{
  "model": "vocabulary.type",
  "pk": 12,
  "fields": {
    "name": "Predicative",
    "slug": "predicative",
    "sorting": 1
  }
},
{
  "model": "vocabulary.type",
  "pk": 13,
  "fields": {
    "name": "Numeral",
    "slug": "numeral",
    "sorting": 2
  }
},
{
  "model": "vocabulary.type",
  "pk": 14,
  "fields": {
    "name": "Interjection",
    "slug": "interj",
    "sorting": 1
  }
},
{
  "model": "vocabulary.type",
  "pk": 15,
  "fields": {
    "name": "Phrase",
    "slug": "phrase",
    "sorting": 3
  }
},
{
  "model": "vocabulary.type",
  "pk": 16,
  "fields": {
    "name": "Idiom",
    "slug": "idiom",
    "sorting": 1
  }
},
{
  "model": "vocabulary.type",
  "pk": 17,
  "fields": {
    "name": "Quote",
    "slug": "quote",
    "sorting": 2
  }
},
{
  "model": "vocabulary.type",
  "pk": 18,
  "fields": {
    "name": "Collocation",
    "slug": "collocation",
    "sorting": 3
  }
},
{
  "model": "vocabulary.type",
  "pk": 19,
  "fields": {
    "name": "Proverb",
    "slug": "proverb",
    "sorting": 1
  }
},
{
  "model": "vocabulary.wordtranslations",
  "pk": 1,
  "fields": {
    "created": "2023-09-18T21:17:21.945Z",
    "word": 2,
    "translation": 1
  }
},
{
  "model": "vocabulary.wordtranslations",
  "pk": 2,
  "fields": {
    "created": "2023-09-18T21:17:51.118Z",
    "word": 3,
    "translation": 2
  }
},
{
  "model": "vocabulary.wordtranslations",
  "pk": 3,
  "fields": {
    "created": "2023-09-18T21:18:49.314Z",
    "word": 2,
    "translation": 3
  }
},
{
  "model": "vocabulary.wordtranslations",
  "pk": 4,
  "fields": {
    "created": "2023-09-18T21:19:33.008Z",
    "word": 6,
    "translation": 4
  }
},
{
  "model": "vocabulary.wordtranslations",
  "pk": 5,
  "fields": {
    "created": "2023-09-18T21:19:58.344Z",
    "word": 4,
    "translation": 5
  }
},
{
  "model": "vocabulary.wordtranslations",
  "pk": 6,
  "fields": {
    "created": "2023-09-18T21:21:43.610Z",
    "word": 7,
    "translation": 6
  }
},
{
  "model": "vocabulary.wordtranslations",
  "pk": 7,
  "fields": {
    "created": "2023-09-18T21:22:52.294Z",
    "word": 8,
    "translation": 7
  }
},
{
  "model": "vocabulary.worddefinitions",
  "pk": 3,
  "fields": {
    "created": "2023-09-18T21:25:51.710Z",
    "word": 10,
    "definition": 3
  }
},
{
  "model": "vocabulary.wordusageexamples",
  "pk": 1,
  "fields": {
    "created": "2023-09-18T21:07:45.194Z",
    "word": 6,
    "example": 1
  }
},
{
  "model": "vocabulary.wordusageexamples",
  "pk": 2,
  "fields": {
    "created": "2023-09-18T21:09:58.788Z",
    "word": 2,
    "example": 2
  }
},
{
  "model": "vocabulary.wordusageexamples",
  "pk": 3,
  "fields": {
    "created": "2023-09-18T21:15:20.853Z",
    "word": 2,
    "example": 3
  }
},
{
  "model": "vocabulary.wordusageexamples",
  "pk": 4,
  "fields": {
    "created": "2023-09-18T21:16:04.972Z",
    "word": 2,
    "example": 4
  }
},
{
  "model": "vocabulary.wordusageexamples",
  "pk": 5,
  "fields": {
    "created": "2023-09-18T21:24:51.911Z",
    "word": 13,
    "example": 5
  }
},
{
  "model": "languages.language",
  "pk": 1,
  "fields": {
    "name": "English",
    "name_local": "English",
    "isocode": "en",
    "sorting": 3
  }
},
{
  "model": "languages.language",
  "pk": 2,
  "fields": {
    "name": "Afrikaans",
    "name_local": "Afrikaans",
    "isocode": "af",
    "sorting": 0
  }
},
{
  "model": "languages.language",
  "pk": 3,
  "fields": {
    "name": "Arabic",
    "name_local": "العربيّة",
    "isocode": "ar",
    "sorting": 1
  }
},
{
  "model": "languages.language",
  "pk": 4,
  "fields": {
    "name": "Azerbaijani",
    "name_local": "Azərbaycanca",
    "isocode": "az",
    "sorting": 0
  }
},
{
  "model": "languages.language",
  "pk": 5,
  "fields": {
    "name": "Belarusian",
    "name_local": "беларуская",
    "isocode": "be",
    "sorting": 0
  }
},
{
  "model": "languages.language",
  "pk": 6,
  "fields": {
    "name": "Bulgarian",
    "name_local": "български",
    "isocode": "bg",
    "sorting": 0
  }
},
{
  "model": "languages.language",
  "pk": 7,
  "fields": {
    "name": "Bengali",
    "name_local": "বাংলা",
    "isocode": "bn",
    "sorting": 0
  }
},
{
  "model": "languages.language",
  "pk": 8,
  "fields": {
    "name": "Breton",
    "name_local": "brezhoneg",
    "isocode": "br",
    "sorting": 0
  }
},
{
  "model": "languages.language",
  "pk": 9,
  "fields": {
    "name": "Bosnian",
    "name_local": "bosanski",
    "isocode": "bs",
    "sorting": 0
  }
},
{
  "model": "languages.language",
  "pk": 10,
  "fields": {
    "name": "Catalan",
    "name_local": "català",
    "isocode": "ca",
    "sorting": 0
  }
},
{
  "model": "languages.language",
  "pk": 11,
  "fields": {
    "name": "Czech",
    "name_local": "česky",
    "isocode": "cs",
    "sorting": 0
  }
},
{
  "model": "languages.language",
  "pk": 12,
  "fields": {
    "name": "Welsh",
    "name_local": "Cymraeg",
    "isocode": "cy",
    "sorting": 0
  }
},
{
  "model": "languages.language",
  "pk": 13,
  "fields": {
    "name": "Danish",
    "name_local": "dansk",
    "isocode": "da",
    "sorting": 0
  }
},
{
  "model": "languages.language",
  "pk": 14,
  "fields": {
    "name": "German",
    "name_local": "Deutsch",
    "isocode": "de",
    "sorting": 2
  }
},
{
  "model": "languages.language",
  "pk": 15,
  "fields": {
    "name": "Greek",
    "name_local": "Ελληνικά",
    "isocode": "el",
    "sorting": 0
  }
},
{
  "model": "languages.language",
  "pk": 16,
  "fields": {
    "name": "Esperanto",
    "name_local": "Esperanto",
    "isocode": "eo",
    "sorting": 0
  }
},
{
  "model": "languages.language",
  "pk": 17,
  "fields": {
    "name": "Spanish",
    "name_local": "español",
    "isocode": "es",
    "sorting": 2
  }
},
{
  "model": "languages.language",
  "pk": 18,
  "fields": {
    "name": "Estonian",
    "name_local": "eesti",
    "isocode": "et",
    "sorting": 0
  }
},
{
  "model": "languages.language",
  "pk": 19,
  "fields": {
    "name": "Basque",
    "name_local": "Basque",
    "isocode": "eu",
    "sorting": 0
  }
},
{
  "model": "languages.language",
  "pk": 20,
  "fields": {
    "name": "Persian",
    "name_local": "فارسی",
    "isocode": "fa",
    "sorting": 0
  }
},
{
  "model": "languages.language",
  "pk": 21,
  "fields": {
    "name": "Finnish",
    "name_local": "suomi",
    "isocode": "fi",
    "sorting": 0
  }
},
{
  "model": "languages.language",
  "pk": 22,
  "fields": {
    "name": "French",
    "name_local": "français",
    "isocode": "fr",
    "sorting": 2
  }
},
{
  "model": "languages.language",
  "pk": 23,
  "fields": {
    "name": "Frisian",
    "name_local": "frysk",
    "isocode": "fy",
    "sorting": 0
  }
},
{
  "model": "languages.language",
  "pk": 24,
  "fields": {
    "name": "Irish",
    "name_local": "Gaeilge",
    "isocode": "ga",
    "sorting": 0
  }
},
{
  "model": "languages.language",
  "pk": 25,
  "fields": {
    "name": "Scottish Gaelic",
    "name_local": "Gàidhlig",
    "isocode": "gd",
    "sorting": 0
  }
},
{
  "model": "languages.language",
  "pk": 26,
  "fields": {
    "name": "Galician",
    "name_local": "galego",
    "isocode": "gl",
    "sorting": 0
  }
},
{
  "model": "languages.language",
  "pk": 27,
  "fields": {
    "name": "Hebrew",
    "name_local": "עברית",
    "isocode": "he",
    "sorting": 0
  }
},
{
  "model": "languages.language",
  "pk": 28,
  "fields": {
    "name": "Hindi",
    "name_local": "हिंदी",
    "isocode": "hi",
    "sorting": 0
  }
},
{
  "model": "languages.language",
  "pk": 29,
  "fields": {
    "name": "Croatian",
    "name_local": "Hrvatski",
    "isocode": "hr",
    "sorting": 0
  }
},
{
  "model": "languages.language",
  "pk": 30,
  "fields": {
    "name": "Hungarian",
    "name_local": "Magyar",
    "isocode": "hu",
    "sorting": 0
  }
},
{
  "model": "languages.language",
  "pk": 31,
  "fields": {
    "name": "Armenian",
    "name_local": "հայերեն",
    "isocode": "hy",
    "sorting": 0
  }
},
{
  "model": "languages.language",
  "pk": 32,
  "fields": {
    "name": "Interlingua",
    "name_local": "Interlingua",
    "isocode": "ia",
    "sorting": 0
  }
},
{
  "model": "languages.language",
  "pk": 33,
  "fields": {
    "name": "Ido",
    "name_local": "ido",
    "isocode": "io",
    "sorting": 0
  }
},
{
  "model": "languages.language",
  "pk": 34,
  "fields": {
    "name": "Indonesian",
    "name_local": "Bahasa Indonesia",
    "isocode": "id",
    "sorting": 0
  }
},
{
  "model": "languages.language",
  "pk": 35,
  "fields": {
    "name": "Igbo",
    "name_local": "Asụsụ Ìgbò",
    "isocode": "ig",
    "sorting": 0
  }
},
{
  "model": "languages.language",
  "pk": 36,
  "fields": {
    "name": "Icelandic",
    "name_local": "Íslenska",
    "isocode": "is",
    "sorting": 0
  }
},
{
  "model": "languages.language",
  "pk": 37,
  "fields": {
    "name": "Italian",
    "name_local": "italiano",
    "isocode": "it",
    "sorting": 2
  }
},
{
  "model": "languages.language",
  "pk": 38,
  "fields": {
    "name": "Japanese",
    "name_local": "日本語",
    "isocode": "ja",
    "sorting": 2
  }
},
{
  "model": "languages.language",
  "pk": 39,
  "fields": {
    "name": "Georgian",
    "name_local": "ქართული",
    "isocode": "ka",
    "sorting": 0
  }
},
{
  "model": "languages.language",
  "pk": 40,
  "fields": {
    "name": "Kazakh",
    "name_local": "Қазақ",
    "isocode": "kk",
    "sorting": 0
  }
},
{
  "model": "languages.language",
  "pk": 41,
  "fields": {
    "name": "Khmer",
    "name_local": "Khmer",
    "isocode": "km",
    "sorting": 0
  }
},
{
  "model": "languages.language",
  "pk": 42,
  "fields": {
    "name": "Kannada",
    "name_local": "Kannada",
    "isocode": "kn",
    "sorting": 0
  }
},
{
  "model": "languages.language",
  "pk": 43,
  "fields": {
    "name": "Korean",
    "name_local": "한국어",
    "isocode": "ko",
    "sorting": 2
  }
},
{
  "model": "languages.language",
  "pk": 44,
  "fields": {
    "name": "Kyrgyz",
    "name_local": "Кыргызча",
    "isocode": "ky",
    "sorting": 0
  }
},
{
  "model": "languages.language",
  "pk": 45,
  "fields": {
    "name": "Luxembourgish",
    "name_local": "Lëtzebuergesch",
    "isocode": "lb",
    "sorting": 0
  }
},
{
  "model": "languages.language",
  "pk": 46,
  "fields": {
    "name": "Lithuanian",
    "name_local": "Lietuviškai",
    "isocode": "lt",
    "sorting": 0
  }
},
{
  "model": "languages.language",
  "pk": 47,
  "fields": {
    "name": "Latvian",
    "name_local": "latviešu",
    "isocode": "lv",
    "sorting": 0
  }
},
{
  "model": "languages.language",
  "pk": 48,
  "fields": {
    "name": "Macedonian",
    "name_local": "Македонски",
    "isocode": "mk",
    "sorting": 0
  }
},
{
  "model": "languages.language",
  "pk": 49,
  "fields": {
    "name": "Malayalam",
    "name_local": "മലയാളം",
    "isocode": "ml",
    "sorting": 0
  }
},
{
  "model": "languages.language",
  "pk": 50,
  "fields": {
    "name": "Mongolian",
    "name_local": "Mongolian",
    "isocode": "mn",
    "sorting": 0
  }
},
{
  "model": "languages.language",
  "pk": 51,
  "fields": {
    "name": "Marathi",
    "name_local": "मराठी",
    "isocode": "mr",
    "sorting": 0
  }
},
{
  "model": "languages.language",
  "pk": 52,
  "fields": {
    "name": "Malay",
    "name_local": "Bahasa Melayu",
    "isocode": "ms",
    "sorting": 0
  }
},
{
  "model": "languages.language",
  "pk": 53,
  "fields": {
    "name": "Burmese",
    "name_local": "မြန်မာဘာသာ",
    "isocode": "my",
    "sorting": 0
  }
},
{
  "model": "languages.language",
  "pk": 54,
  "fields": {
    "name": "Norwegian Bokmal",
    "name_local": "norsk (bokmål)",
    "isocode": "nb",
    "sorting": 0
  }
},
{
  "model": "languages.language",
  "pk": 55,
  "fields": {
    "name": "Nepali",
    "name_local": "नेपाली",
    "isocode": "ne",
    "sorting": 0
  }
},
{
  "model": "languages.language",
  "pk": 56,
  "fields": {
    "name": "Dutch",
    "name_local": "Nederlands",
    "isocode": "nl",
    "sorting": 1
  }
},
{
  "model": "languages.language",
  "pk": 57,
  "fields": {
    "name": "Norwegian Nynorsk",
    "name_local": "norsk (nynorsk)",
    "isocode": "nn",
    "sorting": 0
  }
},
{
  "model": "languages.language",
  "pk": 58,
  "fields": {
    "name": "Norwegian",
    "name_local": "norsk",
    "isocode": "no",
    "sorting": 0
  }
},
{
  "model": "languages.language",
  "pk": 59,
  "fields": {
    "name": "Ossetic",
    "name_local": "Ирон",
    "isocode": "os",
    "sorting": 0
  }
},
{
  "model": "languages.language",
  "pk": 60,
  "fields": {
    "name": "Punjabi",
    "name_local": "Punjabi",
    "isocode": "pa",
    "sorting": 0
  }
},
{
  "model": "languages.language",
  "pk": 61,
  "fields": {
    "name": "Polish",
    "name_local": "polski",
    "isocode": "pl",
    "sorting": 0
  }
},
{
  "model": "languages.language",
  "pk": 62,
  "fields": {
    "name": "Portuguese",
    "name_local": "Português",
    "isocode": "pt",
    "sorting": 0
  }
},
{
  "model": "languages.language",
  "pk": 63,
  "fields": {
    "name": "Romanian",
    "name_local": "Română",
    "isocode": "ro",
    "sorting": 1
  }
},
{
  "model": "languages.language",
  "pk": 64,
  "fields": {
    "name": "Russian",
    "name_local": "Русский",
    "isocode": "ru",
    "sorting": 2
  }
},
{
  "model": "languages.language",
  "pk": 65,
  "fields": {
    "name": "Slovak",
    "name_local": "Slovensky",
    "isocode": "sk",
    "sorting": 0
  }
},
{
  "model": "languages.language",
  "pk": 66,
  "fields": {
    "name": "Slovenian",
    "name_local": "Slovenščina",
    "isocode": "sl",
    "sorting": 0
  }
},
{
  "model": "languages.language",
  "pk": 67,
  "fields": {
    "name": "Albanian",
    "name_local": "shqip",
    "isocode": "sq",
    "sorting": 0
  }
},
{
  "model": "languages.language",
  "pk": 68,
  "fields": {
    "name": "Serbian",
    "name_local": "српски",
    "isocode": "sr",
    "sorting": 0
  }
},
{
  "model": "languages.language",
  "pk": 69,
  "fields": {
    "name": "Swedish",
    "name_local": "svenska",
    "isocode": "sv",
    "sorting": 0
  }
},
{
  "model": "languages.language",
  "pk": 70,
  "fields": {
    "name": "Swahili",
    "name_local": "Kiswahili",
    "isocode": "sw",
    "sorting": 0
  }
},
{
  "model": "languages.language",
  "pk": 71,
  "fields": {
    "name": "Tamil",
    "name_local": "தமிழ்",
    "isocode": "ta",
    "sorting": 0
  }
},
{
  "model": "languages.language",
  "pk": 72,
  "fields": {
    "name": "Telugu",
    "name_local": "తెలుగు",
    "isocode": "te",
    "sorting": 0
  }
},
{
  "model": "languages.language",
  "pk": 73,
  "fields": {
    "name": "Tajik",
    "name_local": "тоҷикӣ",
    "isocode": "tg",
    "sorting": 0
  }
},
{
  "model": "languages.language",
  "pk": 74,
  "fields": {
    "name": "Thai",
    "name_local": "ภาษาไทย",
    "isocode": "th",
    "sorting": 0
  }
},
{
  "model": "languages.language",
  "pk": 75,
  "fields": {
    "name": "Turkmen",
    "name_local": "Türkmençe",
    "isocode": "tk",
    "sorting": 0
  }
},
{
  "model": "languages.language",
  "pk": 76,
  "fields": {
    "name": "Turkish",
    "name_local": "Türkçe",
    "isocode": "tr",
    "sorting": 1
  }
},
{
  "model": "languages.language",
  "pk": 77,
  "fields": {
    "name": "Tatar",
    "name_local": "Татарча",
    "isocode": "tt",
    "sorting": 0
  }
},
{
  "model": "languages.language",
  "pk": 78,
  "fields": {
    "name": "Ukrainian",
    "name_local": "Українська",
    "isocode": "uk",
    "sorting": 0
  }
},
{
  "model": "languages.language",
  "pk": 79,
  "fields": {
    "name": "Urdu",
    "name_local": "اردو",
    "isocode": "ur",
    "sorting": 0
  }
},
{
  "model": "languages.language",
  "pk": 80,
  "fields": {
    "name": "Uzbek",
    "name_local": "oʻzbek tili",
    "isocode": "uz",
    "sorting": 0
  }
},
{
  "model": "languages.language",
  "pk": 81,
  "fields": {
    "name": "Vietnamese",
    "name_local": "Tiếng Việt",
    "isocode": "vi",
    "sorting": 0
  }
},
{
  "model": "users.user",
  "fields": {
    "password": "pbkdf2_sha256$600000$3y9VUxfJ8e08MqmTfQKA2u$Y/HHvtapNajHvfYRFluStB1Mv6oRNB1ChfE2xDuLXS0=",
    "last_login": "2023-09-22T18:49:45.934Z",
    "is_superuser": true,
    "username": "admin",
    "first_name": "",
    "is_staff": true,
    "is_active": true,
    "date_joined": "2023-09-07T09:28:39.692Z",
    "email": "admin@example.com",
    "slug": "",
    "gender": null,
    "image": "",
    "groups": [],
    "user_permissions": []
  }
},
{
  "model": "users.user",
  "fields": {
    "password": "pbkdf2_sha256$600000$nKL8ulZASFtddKdlPjnRYK$n1O8ACZcEYDvqmnqfbgBEGFI5gour4HRecI56RTDPA8=",
    "last_login": "2023-09-21T08:59:58.956Z",
    "is_superuser": false,
    "username": "test_user1",
    "first_name": "Ivan",
    "is_staff": false,
    "is_active": true,
    "date_joined": "2023-09-07T09:37:35Z",
    "email": "user@example.com",
    "slug": "test_user1",
    "gender": "M",
    "image": "",
    "groups": [],
    "user_permissions": []
  }
},
{
  "model": "users.user",
  "fields": {
    "password": "string123",
    "last_login": null,
    "is_superuser": false,
    "username": "test_user2",
    "first_name": "Jay",
    "is_staff": false,
    "is_active": true,
    "date_joined": "2023-09-18T20:00:30Z",
    "email": "jay@gmail.com",
    "slug": "test_user2",
    "gender": "F",
    "image": "",
    "groups": [],
    "user_permissions": []
  }
},
{
  "model": "languages.userlanguage",
  "pk": 1,
  "fields": {
    "created": "2023-09-18T20:20:29.879Z",
    "user": [
      "test_user1"
    ],
    "language": 1,
    "is_native": false
  }
},
{
  "model": "languages.userlanguage",
  "pk": 2,
  "fields": {
    "created": "2023-09-18T20:29:25.085Z",
    "user": [
      "test_user1"
    ],
    "language": 17,
    "is_native": false
  }
},
{
  "model": "languages.userlanguage",
  "pk": 3,
  "fields": {
    "created": "2023-09-18T20:34:44.859Z",
    "user": [
      "test_user1"
    ],
    "language": 64,
    "is_native": true
  }
},
{
  "model": "languages.userlanguage",
  "pk": 4,
  "fields": {
    "created": "2023-09-18T20:34:55.370Z",
    "user": [
      "test_user2"
    ],
    "language": 1,
    "is_native": false
  }
},
{
  "model": "languages.userlanguage",
  "pk": 5,
  "fields": {
    "created": "2023-09-18T20:35:07.523Z",
    "user": [
      "test_user2"
    ],
    "language": 64,
    "is_native": true
  }
},
{
  "model": "vocabulary.usageexample",
  "pk": 1,
  "fields": {
    "created": "2023-09-18T21:07:24.358Z",
    "modified": "2023-09-18T21:11:43.635Z",
    "author": [
      "test_user1"
    ],
    "text": "Please install requirements for this app",
    "translation": ""
  }
},
{
  "model": "vocabulary.usageexample",
  "pk": 2,
  "fields": {
    "created": "2023-09-18T21:09:54.757Z",
    "modified": "2023-09-18T21:14:15.026Z",
    "author": [
      "test_user1"
    ],
    "text": "His writing style is often considered ambiguous, making it difficult to understand his intentions",
    "translation": ""
  }
},
{
  "model": "vocabulary.usageexample",
  "pk": 3,
  "fields": {
    "created": "2023-09-18T21:15:19.132Z",
    "modified": "2023-09-18T21:15:19.132Z",
    "author": [
      "test_user1"
    ],
    "text": "The phrase “ambiguous sign” indicated that the road ahead was closed.",
    "translation": ""
  }
},
{
  "model": "vocabulary.usageexample",
  "pk": 4,
  "fields": {
    "created": "2023-09-18T21:16:03.357Z",
    "modified": "2023-09-18T21:16:03.357Z",
    "author": [
      "test_user1"
    ],
    "text": "The jury’s decision was ambiguous, leaving many questions unanswered.",
    "translation": ""
  }
},
{
  "model": "vocabulary.usageexample",
  "pk": 5,
  "fields": {
    "created": "2023-09-18T21:24:49.860Z",
    "modified": "2023-09-18T21:24:49.860Z",
    "author": [
      "test_user2"
    ],
    "text": "Non-profit institution",
    "translation": ""
  }
},
{
  "model": "vocabulary.definition",
  "pk": 3,
  "fields": {
    "created": "2023-09-18T21:25:50.417Z",
    "modified": "2023-09-18T21:25:50.417Z",
    "author": [
      "test_user2"
    ],
    "text": "Finish with consequences",
    "translation": ""
  }
},
{
  "model": "vocabulary.translation",
  "pk": 1,
  "fields": {
    "created": "2023-09-18T21:17:20.479Z",
    "modified": "2023-09-18T21:17:20.479Z",
    "author": [
      "test_user1"
    ],
    "text": "Двусмысленный"
  }
},
{
  "model": "vocabulary.translation",
  "pk": 2,
  "fields": {
    "created": "2023-09-18T21:17:45.471Z",
    "modified": "2023-09-18T21:17:45.471Z",
    "author": [
      "test_user1"
    ],
    "text": "Изучать"
  }
},
{
  "model": "vocabulary.translation",
  "pk": 3,
  "fields": {
    "created": "2023-09-18T21:18:47.253Z",
    "modified": "2023-09-18T21:18:47.253Z",
    "author": [
      "test_user1"
    ],
    "text": "Сомнительный"
  }
},
{
  "model": "vocabulary.translation",
  "pk": 4,
  "fields": {
    "created": "2023-09-18T21:19:31.645Z",
    "modified": "2023-09-18T21:19:31.645Z",
    "author": [
      "test_user1"
    ],
    "text": "Требования"
  }
},
{
  "model": "vocabulary.translation",
  "pk": 5,
  "fields": {
    "created": "2023-09-18T21:19:56.287Z",
    "modified": "2023-09-18T21:19:56.287Z",
    "author": [
      "test_user1"
    ],
    "text": "Обсуждать кого-то"
  }
},
{
  "model": "vocabulary.translation",
  "pk": 6,
  "fields": {
    "created": "2023-09-18T21:21:36.916Z",
    "modified": "2023-09-18T21:21:36.916Z",
    "author": [
      "test_user1"
    ],
    "text": "Bless you"
  }
},
{
  "model": "vocabulary.translation",
  "pk": 7,
  "fields": {
    "created": "2023-09-18T21:22:33.714Z",
    "modified": "2023-09-18T21:22:33.714Z",
    "author": [
      "test_user1"
    ],
    "text": "Time"
  }
},
{
  "model": "vocabulary.synonym",
  "pk": 1,
  "fields": {
    "created": "2023-09-18T21:27:01.293Z",
    "modified": "2023-09-18T21:27:01.293Z",
    "author": [
      "test_user2"
    ],
    "from_word": 11,
    "to_word": 14,
    "difference": ""
  }
},
{
  "model": "vocabulary.synonym",
  "pk": 2,
  "fields": {
    "created": "2023-09-18T21:29:27.932Z",
    "modified": "2023-09-18T21:29:27.932Z",
    "author": [
      "test_user2"
    ],
    "from_word": 12,
    "to_word": 15,
    "difference": ""
  }
},
{
  "model": "vocabulary.word",
  "pk": 2,
  "fields": {
    "created": "2023-09-18T20:41:06.186Z",
    "modified": "2023-09-18T20:59:44.488Z",
    "language": 1,
    "text": "Ambiguos",
    "slug": "ambiguos-2",
    "author": [
      "test_user1"
    ],
    "type": 3,
    "activity": "INACTIVE",
    "is_problematic": true,
    "pronunciation": "",
    "transcription": "",
    "tags": [
      1
    ]
  }
},
{
  "model": "vocabulary.word",
  "pk": 3,
  "fields": {
    "created": "2023-09-18T20:43:30.157Z",
    "modified": "2023-09-18T20:43:30.157Z",
    "language": 1,
    "text": "Learn",
    "slug": "learn-2",
    "author": [
      "test_user1"
    ],
    "type": 2,
    "activity": "MASTERED",
    "is_problematic": false,
    "pronunciation": "",
    "transcription": "",
    "tags": [
      2
    ]
  }
},
{
  "model": "vocabulary.word",
  "pk": 4,
  "fields": {
    "created": "2023-09-18T20:44:22.268Z",
    "modified": "2023-09-18T20:53:21.753Z",
    "language": 1,
    "text": "Take the mickey",
    "slug": "take-the-mickey-2",
    "author": [
      "test_user1"
    ],
    "type": 15,
    "activity": "INACTIVE",
    "is_problematic": false,
    "pronunciation": "",
    "transcription": "",
    "tags": [
      1
    ]
  }
},
{
  "model": "vocabulary.word",
  "pk": 5,
  "fields": {
    "created": "2023-09-18T20:45:25.726Z",
    "modified": "2023-09-18T20:47:29.444Z",
    "language": 1,
    "text": "Software",
    "slug": "software-2",
    "author": [
      "test_user1"
    ],
    "type": 1,
    "activity": "ACTIVE",
    "is_problematic": false,
    "pronunciation": "",
    "transcription": "",
    "tags": [
      2,
      4
    ]
  }
},
{
  "model": "vocabulary.word",
  "pk": 6,
  "fields": {
    "created": "2023-09-18T20:47:21.457Z",
    "modified": "2023-09-18T20:47:21.457Z",
    "language": 1,
    "text": "Requirements",
    "slug": "requirements-2",
    "author": [
      "test_user1"
    ],
    "type": 1,
    "activity": "ACTIVE",
    "is_problematic": true,
    "pronunciation": "",
    "transcription": "",
    "tags": [
      4
    ]
  }
},
{
  "model": "vocabulary.word",
  "pk": 7,
  "fields": {
    "created": "2023-09-18T20:50:35.224Z",
    "modified": "2023-09-18T20:50:35.224Z",
    "language": 17,
    "text": "Salud",
    "slug": "salud-2",
    "author": [
      "test_user1"
    ],
    "type": 15,
    "activity": "ACTIVE",
    "is_problematic": true,
    "pronunciation": "",
    "transcription": "",
    "tags": [
      5
    ]
  }
},
{
  "model": "vocabulary.word",
  "pk": 8,
  "fields": {
    "created": "2023-09-18T20:51:45.294Z",
    "modified": "2023-09-18T20:51:45.294Z",
    "language": 17,
    "text": "Tiempo",
    "slug": "tiempo-2",
    "author": [
      "test_user1"
    ],
    "type": 1,
    "activity": "ACTIVE",
    "is_problematic": false,
    "pronunciation": "",
    "transcription": "",
    "tags": [
      2
    ]
  }
},
{
  "model": "vocabulary.word",
  "pk": 9,
  "fields": {
    "created": "2023-09-18T20:52:30.943Z",
    "modified": "2023-09-18T20:52:30.943Z",
    "language": 17,
    "text": "Ayer",
    "slug": "ayer-2",
    "author": [
      "test_user1"
    ],
    "type": 1,
    "activity": "INACTIVE",
    "is_problematic": true,
    "pronunciation": "",
    "transcription": "",
    "tags": []
  }
},
{
  "model": "vocabulary.word",
  "pk": 10,
  "fields": {
    "created": "2023-09-18T20:56:09.178Z",
    "modified": "2023-09-18T20:56:09.178Z",
    "language": 1,
    "text": "End up with",
    "slug": "end-up-with-6",
    "author": [
      "test_user2"
    ],
    "type": 4,
    "activity": "INACTIVE",
    "is_problematic": false,
    "pronunciation": "",
    "transcription": "",
    "tags": []
  }
},
{
  "model": "vocabulary.word",
  "pk": 11,
  "fields": {
    "created": "2023-09-18T20:57:07.960Z",
    "modified": "2023-09-18T20:57:07.960Z",
    "language": 1,
    "text": "Hike",
    "slug": "hike-6",
    "author": [
      "test_user2"
    ],
    "type": 1,
    "activity": "INACTIVE",
    "is_problematic": false,
    "pronunciation": "",
    "transcription": "",
    "tags": [
      1,
      2
    ]
  }
},
{
  "model": "vocabulary.word",
  "pk": 12,
  "fields": {
    "created": "2023-09-18T20:57:53.475Z",
    "modified": "2023-09-18T20:57:53.475Z",
    "language": 1,
    "text": "Go to greate lengths",
    "slug": "go-to-greate-lengths-6",
    "author": [
      "test_user2"
    ],
    "type": 15,
    "activity": "INACTIVE",
    "is_problematic": true,
    "pronunciation": "",
    "transcription": "",
    "tags": [
      1
    ]
  }
},
{
  "model": "vocabulary.word",
  "pk": 13,
  "fields": {
    "created": "2023-09-18T20:59:35.105Z",
    "modified": "2023-09-18T20:59:35.105Z",
    "language": 1,
    "text": "Non-profit",
    "slug": "non-profit-6",
    "author": [
      "test_user2"
    ],
    "type": 3,
    "activity": "INACTIVE",
    "is_problematic": false,
    "pronunciation": "",
    "transcription": "",
    "tags": []
  }
},
{
  "model": "vocabulary.word",
  "pk": 14,
  "fields": {
    "created": "2023-09-18T21:26:58.704Z",
    "modified": "2023-09-18T21:26:58.704Z",
    "language": 1,
    "text": "Increase",
    "slug": "increase-6",
    "author": [
      "test_user2"
    ],
    "type": 1,
    "activity": "INACTIVE",
    "is_problematic": false,
    "pronunciation": "",
    "transcription": "",
    "tags": [
      2
    ]
  }
},
{
  "model": "vocabulary.word",
  "pk": 15,
  "fields": {
    "created": "2023-09-18T21:29:26.426Z",
    "modified": "2023-09-18T21:29:26.426Z",
    "language": 1,
    "text": "Do your best",
    "slug": "do-your-best-6",
    "author": [
      "test_user2"
    ],
    "type": 15,
    "activity": "INACTIVE",
    "is_problematic": false,
    "pronunciation": "",
    "transcription": "",
    "tags": [
      2,
      5
    ]
  }
},
{
  "model": "account.emailaddress",
  "pk": 1,
  "fields": {
    "user": [
      "test_user1"
    ],
    "email": "user@example.com",
    "verified": false,
    "primary": true
  }
},
{
  "model": "authtoken.token",
  "pk": "027e623ce960d282afc84b995ca0e5ad082c58fd",
  "fields": {
    "user": [
      "test_user1"
    ],
    "created": "2023-09-21T08:59:58.923Z"
  }
},
{
  "model": "admin.logentry",
  "pk": 1,
  "fields": {
    "action_time": "2023-09-10T16:21:20.421Z",
    "user": [
      "admin"
    ],
    "content_type": [
      "vocabulary",
      "word"
    ],
    "object_id": "1",
    "object_repr": "test",
    "action_flag": 1,
    "change_message": "[{\"added\": {}}]"
  }
},
{
  "model": "admin.logentry",
  "pk": 2,
  "fields": {
    "action_time": "2023-09-10T16:21:33.950Z",
    "user": [
      "admin"
    ],
    "content_type": [
      "vocabulary",
      "definition"
    ],
    "object_id": "1",
    "object_repr": "test",
    "action_flag": 1,
    "change_message": "[{\"added\": {}}]"
  }
},
{
  "model": "admin.logentry",
  "pk": 3,
  "fields": {
    "action_time": "2023-09-10T16:34:26.850Z",
    "user": [
      "admin"
    ],
    "content_type": [
      "vocabulary",
      "worddefinitions"
    ],
    "object_id": "1",
    "object_repr": "`test` means `test` (definition was added at 2023-09-10 16:34:26.846457+00:00)",
    "action_flag": 1,
    "change_message": "[{\"added\": {}}]"
  }
},
{
  "model": "admin.logentry",
  "pk": 4,
  "fields": {
    "action_time": "2023-09-12T19:58:03.632Z",
    "user": [
      "admin"
    ],
    "content_type": [
      "vocabulary",
      "definition"
    ],
    "object_id": "2",
    "object_repr": "test 2",
    "action_flag": 1,
    "change_message": "[{\"added\": {}}]"
  }
},
{
  "model": "admin.logentry",
  "pk": 5,
  "fields": {
    "action_time": "2023-09-12T19:58:16.707Z",
    "user": [
      "admin"
    ],
    "content_type": [
      "vocabulary",
      "worddefinitions"
    ],
    "object_id": "2",
    "object_repr": "`test` means `test 2` (definition was added at 2023-09-12 19:58:16.704558+00:00)",
    "action_flag": 1,
    "change_message": "[{\"added\": {}}]"
  }
},
{
  "model": "admin.logentry",
  "pk": 6,
  "fields": {
    "action_time": "2023-09-18T19:59:38.070Z",
    "user": [
      "admin"
    ],
    "content_type": [
      "users",
      "user"
    ],
    "object_id": "5",
    "object_repr": "test_user4",
    "action_flag": 3,
    "change_message": ""
  }
},
{
  "model": "admin.logentry",
  "pk": 7,
  "fields": {
    "action_time": "2023-09-18T19:59:38.088Z",
    "user": [
      "admin"
    ],
    "content_type": [
      "users",
      "user"
    ],
    "object_id": "4",
    "object_repr": "test_user3",
    "action_flag": 3,
    "change_message": ""
  }
},
{
  "model": "admin.logentry",
  "pk": 8,
  "fields": {
    "action_time": "2023-09-18T19:59:38.104Z",
    "user": [
      "admin"
    ],
    "content_type": [
      "users",
      "user"
    ],
    "object_id": "3",
    "object_repr": "test_user2",
    "action_flag": 3,
    "change_message": ""
  }
},
{
  "model": "admin.logentry",
  "pk": 9,
  "fields": {
    "action_time": "2023-09-18T20:00:26.323Z",
    "user": [
      "admin"
    ],
    "content_type": [
      "users",
      "user"
    ],
    "object_id": "2",
    "object_repr": "test_user1",
    "action_flag": 2,
    "change_message": "[{\"changed\": {\"fields\": [\"Username\", \"First name\", \"Slug\", \"Gender\"]}}]"
  }
},
{
  "model": "admin.logentry",
  "pk": 10,
  "fields": {
    "action_time": "2023-09-18T20:01:38.649Z",
    "user": [
      "admin"
    ],
    "content_type": [
      "users",
      "user"
    ],
    "object_id": "6",
    "object_repr": "test_user2",
    "action_flag": 1,
    "change_message": "[{\"added\": {}}]"
  }
},
{
  "model": "admin.logentry",
  "pk": 11,
  "fields": {
    "action_time": "2023-09-18T20:20:29.883Z",
    "user": [
      "admin"
    ],
    "content_type": [
      "languages",
      "userlanguage"
    ],
    "object_id": "1",
    "object_repr": "UserLanguage object (1)",
    "action_flag": 1,
    "change_message": "[{\"added\": {}}]"
  }
},
{
  "model": "admin.logentry",
  "pk": 12,
  "fields": {
    "action_time": "2023-09-18T20:29:25.088Z",
    "user": [
      "admin"
    ],
    "content_type": [
      "languages",
      "userlanguage"
    ],
    "object_id": "2",
    "object_repr": "UserLanguage object (2)",
    "action_flag": 1,
    "change_message": "[{\"added\": {}}]"
  }
},
{
  "model": "admin.logentry",
  "pk": 13,
  "fields": {
    "action_time": "2023-09-18T20:34:44.861Z",
    "user": [
      "admin"
    ],
    "content_type": [
      "languages",
      "userlanguage"
    ],
    "object_id": "3",
    "object_repr": "Russian (Русский) is native for test_user1",
    "action_flag": 1,
    "change_message": "[{\"added\": {}}]"
  }
},
{
  "model": "admin.logentry",
  "pk": 14,
  "fields": {
    "action_time": "2023-09-18T20:34:55.374Z",
    "user": [
      "admin"
    ],
    "content_type": [
      "languages",
      "userlanguage"
    ],
    "object_id": "4",
    "object_repr": "test_user2 learns English (English)",
    "action_flag": 1,
    "change_message": "[{\"added\": {}}]"
  }
},
{
  "model": "admin.logentry",
  "pk": 15,
  "fields": {
    "action_time": "2023-09-18T20:35:07.525Z",
    "user": [
      "admin"
    ],
    "content_type": [
      "languages",
      "userlanguage"
    ],
    "object_id": "5",
    "object_repr": "Russian (Русский) is native for test_user2",
    "action_flag": 1,
    "change_message": "[{\"added\": {}}]"
  }
},
{
  "model": "admin.logentry",
  "pk": 16,
  "fields": {
    "action_time": "2023-09-18T20:41:02.754Z",
    "user": [
      "admin"
    ],
    "content_type": [
      "vocabulary",
      "tag"
    ],
    "object_id": "1",
    "object_repr": "курс лингволео",
    "action_flag": 1,
    "change_message": "[{\"added\": {}}]"
  }
},
{
  "model": "admin.logentry",
  "pk": 17,
  "fields": {
    "action_time": "2023-09-18T20:41:06.197Z",
    "user": [
      "admin"
    ],
    "content_type": [
      "vocabulary",
      "word"
    ],
    "object_id": "2",
    "object_repr": "Ambiguos",
    "action_flag": 1,
    "change_message": "[{\"added\": {}}]"
  }
},
{
  "model": "admin.logentry",
  "pk": 18,
  "fields": {
    "action_time": "2023-09-18T20:41:21.577Z",
    "user": [
      "admin"
    ],
    "content_type": [
      "vocabulary",
      "word"
    ],
    "object_id": "2",
    "object_repr": "Ambiguos",
    "action_flag": 2,
    "change_message": "[{\"changed\": {\"fields\": [\"Type\"]}}]"
  }
},
{
  "model": "admin.logentry",
  "pk": 19,
  "fields": {
    "action_time": "2023-09-18T20:43:23.492Z",
    "user": [
      "admin"
    ],
    "content_type": [
      "vocabulary",
      "tag"
    ],
    "object_id": "2",
    "object_repr": "легкое",
    "action_flag": 1,
    "change_message": "[{\"added\": {}}]"
  }
},
{
  "model": "admin.logentry",
  "pk": 20,
  "fields": {
    "action_time": "2023-09-18T20:43:30.166Z",
    "user": [
      "admin"
    ],
    "content_type": [
      "vocabulary",
      "word"
    ],
    "object_id": "3",
    "object_repr": "Learn",
    "action_flag": 1,
    "change_message": "[{\"added\": {}}]"
  }
},
{
  "model": "admin.logentry",
  "pk": 21,
  "fields": {
    "action_time": "2023-09-18T20:44:22.288Z",
    "user": [
      "admin"
    ],
    "content_type": [
      "vocabulary",
      "word"
    ],
    "object_id": "4",
    "object_repr": "Take the mickey",
    "action_flag": 1,
    "change_message": "[{\"added\": {}}]"
  }
},
{
  "model": "admin.logentry",
  "pk": 22,
  "fields": {
    "action_time": "2023-09-18T20:45:11.880Z",
    "user": [
      "admin"
    ],
    "content_type": [
      "vocabulary",
      "tag"
    ],
    "object_id": "3",
    "object_repr": "for job'",
    "action_flag": 1,
    "change_message": "[{\"added\": {}}]"
  }
},
{
  "model": "admin.logentry",
  "pk": 23,
  "fields": {
    "action_time": "2023-09-18T20:45:25.732Z",
    "user": [
      "admin"
    ],
    "content_type": [
      "vocabulary",
      "word"
    ],
    "object_id": "5",
    "object_repr": "Software",
    "action_flag": 1,
    "change_message": "[{\"added\": {}}]"
  }
},
{
  "model": "admin.logentry",
  "pk": 24,
  "fields": {
    "action_time": "2023-09-18T20:45:35.781Z",
    "user": [
      "admin"
    ],
    "content_type": [
      "vocabulary",
      "tag"
    ],
    "object_id": "3",
    "object_repr": "for job'",
    "action_flag": 3,
    "change_message": ""
  }
},
{
  "model": "admin.logentry",
  "pk": 25,
  "fields": {
    "action_time": "2023-09-18T20:45:50.323Z",
    "user": [
      "admin"
    ],
    "content_type": [
      "vocabulary",
      "tag"
    ],
    "object_id": "4",
    "object_repr": "for job",
    "action_flag": 1,
    "change_message": "[{\"added\": {}}]"
  }
},
{
  "model": "admin.logentry",
  "pk": 26,
  "fields": {
    "action_time": "2023-09-18T20:45:53.946Z",
    "user": [
      "admin"
    ],
    "content_type": [
      "vocabulary",
      "word"
    ],
    "object_id": "5",
    "object_repr": "Software",
    "action_flag": 2,
    "change_message": "[{\"changed\": {\"fields\": [\"Word tags\"]}}]"
  }
},
{
  "model": "admin.logentry",
  "pk": 27,
  "fields": {
    "action_time": "2023-09-18T20:47:21.462Z",
    "user": [
      "admin"
    ],
    "content_type": [
      "vocabulary",
      "word"
    ],
    "object_id": "6",
    "object_repr": "Requirements",
    "action_flag": 1,
    "change_message": "[{\"added\": {}}]"
  }
},
{
  "model": "admin.logentry",
  "pk": 28,
  "fields": {
    "action_time": "2023-09-18T20:47:29.450Z",
    "user": [
      "admin"
    ],
    "content_type": [
      "vocabulary",
      "word"
    ],
    "object_id": "5",
    "object_repr": "Software",
    "action_flag": 2,
    "change_message": "[{\"changed\": {\"fields\": [\"Word tags\"]}}]"
  }
},
{
  "model": "admin.logentry",
  "pk": 29,
  "fields": {
    "action_time": "2023-09-18T20:50:32.521Z",
    "user": [
      "admin"
    ],
    "content_type": [
      "vocabulary",
      "tag"
    ],
    "object_id": "5",
    "object_repr": "разговорное",
    "action_flag": 1,
    "change_message": "[{\"added\": {}}]"
  }
},
{
  "model": "admin.logentry",
  "pk": 30,
  "fields": {
    "action_time": "2023-09-18T20:50:35.231Z",
    "user": [
      "admin"
    ],
    "content_type": [
      "vocabulary",
      "word"
    ],
    "object_id": "7",
    "object_repr": "Salud",
    "action_flag": 1,
    "change_message": "[{\"added\": {}}]"
  }
},
{
  "model": "admin.logentry",
  "pk": 31,
  "fields": {
    "action_time": "2023-09-18T20:51:45.300Z",
    "user": [
      "admin"
    ],
    "content_type": [
      "vocabulary",
      "word"
    ],
    "object_id": "8",
    "object_repr": "Tiempo",
    "action_flag": 1,
    "change_message": "[{\"added\": {}}]"
  }
},
{
  "model": "admin.logentry",
  "pk": 32,
  "fields": {
    "action_time": "2023-09-18T20:52:30.949Z",
    "user": [
      "admin"
    ],
    "content_type": [
      "vocabulary",
      "word"
    ],
    "object_id": "9",
    "object_repr": "Ayer",
    "action_flag": 1,
    "change_message": "[{\"added\": {}}]"
  }
},
{
  "model": "admin.logentry",
  "pk": 33,
  "fields": {
    "action_time": "2023-09-18T20:53:21.784Z",
    "user": [
      "admin"
    ],
    "content_type": [
      "vocabulary",
      "word"
    ],
    "object_id": "4",
    "object_repr": "Take the mickey",
    "action_flag": 2,
    "change_message": "[{\"changed\": {\"fields\": [\"Is the word problematic for you\"]}}]"
  }
},
{
  "model": "admin.logentry",
  "pk": 34,
  "fields": {
    "action_time": "2023-09-18T20:56:09.184Z",
    "user": [
      "admin"
    ],
    "content_type": [
      "vocabulary",
      "word"
    ],
    "object_id": "10",
    "object_repr": "End up with",
    "action_flag": 1,
    "change_message": "[{\"added\": {}}]"
  }
},
{
  "model": "admin.logentry",
  "pk": 35,
  "fields": {
    "action_time": "2023-09-18T20:57:07.966Z",
    "user": [
      "admin"
    ],
    "content_type": [
      "vocabulary",
      "word"
    ],
    "object_id": "11",
    "object_repr": "Hike",
    "action_flag": 1,
    "change_message": "[{\"added\": {}}]"
  }
},
{
  "model": "admin.logentry",
  "pk": 36,
  "fields": {
    "action_time": "2023-09-18T20:57:53.481Z",
    "user": [
      "admin"
    ],
    "content_type": [
      "vocabulary",
      "word"
    ],
    "object_id": "12",
    "object_repr": "Go to greate lengths",
    "action_flag": 1,
    "change_message": "[{\"added\": {}}]"
  }
},
{
  "model": "admin.logentry",
  "pk": 37,
  "fields": {
    "action_time": "2023-09-18T20:59:35.111Z",
    "user": [
      "admin"
    ],
    "content_type": [
      "vocabulary",
      "word"
    ],
    "object_id": "13",
    "object_repr": "Non-profit",
    "action_flag": 1,
    "change_message": "[{\"added\": {}}]"
  }
},
{
  "model": "admin.logentry",
  "pk": 38,
  "fields": {
    "action_time": "2023-09-18T20:59:44.492Z",
    "user": [
      "admin"
    ],
    "content_type": [
      "vocabulary",
      "word"
    ],
    "object_id": "2",
    "object_repr": "Ambiguos",
    "action_flag": 2,
    "change_message": "[{\"changed\": {\"fields\": [\"Type\"]}}]"
  }
},
{
  "model": "admin.logentry",
  "pk": 39,
  "fields": {
    "action_time": "2023-09-18T21:07:24.361Z",
    "user": [
      "admin"
    ],
    "content_type": [
      "vocabulary",
      "usageexample"
    ],
    "object_id": "1",
    "object_repr": "Please install requirements",
    "action_flag": 1,
    "change_message": "[{\"added\": {}}]"
  }
},
{
  "model": "admin.logentry",
  "pk": 40,
  "fields": {
    "action_time": "2023-09-18T21:07:45.197Z",
    "user": [
      "admin"
    ],
    "content_type": [
      "vocabulary",
      "wordusageexamples"
    ],
    "object_id": "1",
    "object_repr": "Usage example of `Requirements`: Please install requirements (example was added at 2023-09-18 21:07:45.194727+00:00)",
    "action_flag": 1,
    "change_message": "[{\"added\": {}}]"
  }
},
{
  "model": "admin.logentry",
  "pk": 41,
  "fields": {
    "action_time": "2023-09-18T21:09:54.760Z",
    "user": [
      "admin"
    ],
    "content_type": [
      "vocabulary",
      "usageexample"
    ],
    "object_id": "2",
    "object_repr": "His phrases were too ambiguous",
    "action_flag": 1,
    "change_message": "[{\"added\": {}}]"
  }
},
{
  "model": "admin.logentry",
  "pk": 42,
  "fields": {
    "action_time": "2023-09-18T21:09:58.790Z",
    "user": [
      "admin"
    ],
    "content_type": [
      "vocabulary",
      "wordusageexamples"
    ],
    "object_id": "2",
    "object_repr": "Usage example of `Ambiguos`: His phrases were too ambiguous (example was added at 2023-09-18 21:09:58.788691+00:00)",
    "action_flag": 1,
    "change_message": "[{\"added\": {}}]"
  }
},
{
  "model": "admin.logentry",
  "pk": 43,
  "fields": {
    "action_time": "2023-09-18T21:11:43.639Z",
    "user": [
      "admin"
    ],
    "content_type": [
      "vocabulary",
      "usageexample"
    ],
    "object_id": "1",
    "object_repr": "Please install requirements for this app",
    "action_flag": 2,
    "change_message": "[{\"changed\": {\"fields\": [\"Usage example\"]}}]"
  }
},
{
  "model": "admin.logentry",
  "pk": 44,
  "fields": {
    "action_time": "2023-09-18T21:11:46.087Z",
    "user": [
      "admin"
    ],
    "content_type": [
      "vocabulary",
      "wordusageexamples"
    ],
    "object_id": "1",
    "object_repr": "Usage example of `Requirements`: Please install requirements for this app (example was added at 2023-09-18 21:07:45.194727+00:00)",
    "action_flag": 2,
    "change_message": "[]"
  }
},
{
  "model": "admin.logentry",
  "pk": 45,
  "fields": {
    "action_time": "2023-09-18T21:14:15.029Z",
    "user": [
      "admin"
    ],
    "content_type": [
      "vocabulary",
      "usageexample"
    ],
    "object_id": "2",
    "object_repr": "His writing style is often considered ambiguous, making it difficult to understand his intentions",
    "action_flag": 2,
    "change_message": "[{\"changed\": {\"fields\": [\"Usage example\"]}}]"
  }
},
{
  "model": "admin.logentry",
  "pk": 46,
  "fields": {
    "action_time": "2023-09-18T21:14:17.160Z",
    "user": [
      "admin"
    ],
    "content_type": [
      "vocabulary",
      "wordusageexamples"
    ],
    "object_id": "2",
    "object_repr": "Usage example of `Ambiguos`: His writing style is often considered ambiguous, making it difficult to understand his intentions (example was added at 2023-09-18 21:09:58.788691+00:00)",
    "action_flag": 2,
    "change_message": "[]"
  }
},
{
  "model": "admin.logentry",
  "pk": 47,
  "fields": {
    "action_time": "2023-09-18T21:15:19.134Z",
    "user": [
      "admin"
    ],
    "content_type": [
      "vocabulary",
      "usageexample"
    ],
    "object_id": "3",
    "object_repr": "The phrase “ambiguous sign” indicated that the road ahead was closed.",
    "action_flag": 1,
    "change_message": "[{\"added\": {}}]"
  }
},
{
  "model": "admin.logentry",
  "pk": 48,
  "fields": {
    "action_time": "2023-09-18T21:15:20.855Z",
    "user": [
      "admin"
    ],
    "content_type": [
      "vocabulary",
      "wordusageexamples"
    ],
    "object_id": "3",
    "object_repr": "Usage example of `Ambiguos`: The phrase “ambiguous sign” indicated that the road ahead was closed. (example was added at 2023-09-18 21:15:20.853940+00:00)",
    "action_flag": 1,
    "change_message": "[{\"added\": {}}]"
  }
},
{
  "model": "admin.logentry",
  "pk": 49,
  "fields": {
    "action_time": "2023-09-18T21:16:03.360Z",
    "user": [
      "admin"
    ],
    "content_type": [
      "vocabulary",
      "usageexample"
    ],
    "object_id": "4",
    "object_repr": "The jury’s decision was ambiguous, leaving many questions unanswered.",
    "action_flag": 1,
    "change_message": "[{\"added\": {}}]"
  }
},
{
  "model": "admin.logentry",
  "pk": 50,
  "fields": {
    "action_time": "2023-09-18T21:16:04.974Z",
    "user": [
      "admin"
    ],
    "content_type": [
      "vocabulary",
      "wordusageexamples"
    ],
    "object_id": "4",
    "object_repr": "Usage example of `Ambiguos`: The jury’s decision was ambiguous, leaving many questions unanswered. (example was added at 2023-09-18 21:16:04.972739+00:00)",
    "action_flag": 1,
    "change_message": "[{\"added\": {}}]"
  }
},
{
  "model": "admin.logentry",
  "pk": 51,
  "fields": {
    "action_time": "2023-09-18T21:17:20.481Z",
    "user": [
      "admin"
    ],
    "content_type": [
      "vocabulary",
      "translation"
    ],
    "object_id": "1",
    "object_repr": "Двусмысленный",
    "action_flag": 1,
    "change_message": "[{\"added\": {}}]"
  }
},
{
  "model": "admin.logentry",
  "pk": 52,
  "fields": {
    "action_time": "2023-09-18T21:17:21.948Z",
    "user": [
      "admin"
    ],
    "content_type": [
      "vocabulary",
      "wordtranslations"
    ],
    "object_id": "1",
    "object_repr": "`Ambiguos` is translated as `Двусмысленный` (translation was added at 2023-09-18 21:17:21.945312+00:00)",
    "action_flag": 1,
    "change_message": "[{\"added\": {}}]"
  }
},
{
  "model": "admin.logentry",
  "pk": 53,
  "fields": {
    "action_time": "2023-09-18T21:17:45.474Z",
    "user": [
      "admin"
    ],
    "content_type": [
      "vocabulary",
      "translation"
    ],
    "object_id": "2",
    "object_repr": "Изучать",
    "action_flag": 1,
    "change_message": "[{\"added\": {}}]"
  }
},
{
  "model": "admin.logentry",
  "pk": 54,
  "fields": {
    "action_time": "2023-09-18T21:17:51.120Z",
    "user": [
      "admin"
    ],
    "content_type": [
      "vocabulary",
      "wordtranslations"
    ],
    "object_id": "2",
    "object_repr": "`Learn` is translated as `Изучать` (translation was added at 2023-09-18 21:17:51.118099+00:00)",
    "action_flag": 1,
    "change_message": "[{\"added\": {}}]"
  }
},
{
  "model": "admin.logentry",
  "pk": 55,
  "fields": {
    "action_time": "2023-09-18T21:18:47.256Z",
    "user": [
      "admin"
    ],
    "content_type": [
      "vocabulary",
      "translation"
    ],
    "object_id": "3",
    "object_repr": "Сомнительный",
    "action_flag": 1,
    "change_message": "[{\"added\": {}}]"
  }
},
{
  "model": "admin.logentry",
  "pk": 56,
  "fields": {
    "action_time": "2023-09-18T21:18:49.317Z",
    "user": [
      "admin"
    ],
    "content_type": [
      "vocabulary",
      "wordtranslations"
    ],
    "object_id": "3",
    "object_repr": "`Ambiguos` is translated as `Сомнительный` (translation was added at 2023-09-18 21:18:49.314501+00:00)",
    "action_flag": 1,
    "change_message": "[{\"added\": {}}]"
  }
},
{
  "model": "admin.logentry",
  "pk": 57,
  "fields": {
    "action_time": "2023-09-18T21:19:31.647Z",
    "user": [
      "admin"
    ],
    "content_type": [
      "vocabulary",
      "translation"
    ],
    "object_id": "4",
    "object_repr": "Требования",
    "action_flag": 1,
    "change_message": "[{\"added\": {}}]"
  }
},
{
  "model": "admin.logentry",
  "pk": 58,
  "fields": {
    "action_time": "2023-09-18T21:19:33.010Z",
    "user": [
      "admin"
    ],
    "content_type": [
      "vocabulary",
      "wordtranslations"
    ],
    "object_id": "4",
    "object_repr": "`Requirements` is translated as `Требования` (translation was added at 2023-09-18 21:19:33.008109+00:00)",
    "action_flag": 1,
    "change_message": "[{\"added\": {}}]"
  }
},
{
  "model": "admin.logentry",
  "pk": 59,
  "fields": {
    "action_time": "2023-09-18T21:19:56.290Z",
    "user": [
      "admin"
    ],
    "content_type": [
      "vocabulary",
      "translation"
    ],
    "object_id": "5",
    "object_repr": "Обсуждать кого-то",
    "action_flag": 1,
    "change_message": "[{\"added\": {}}]"
  }
},
{
  "model": "admin.logentry",
  "pk": 60,
  "fields": {
    "action_time": "2023-09-18T21:19:58.346Z",
    "user": [
      "admin"
    ],
    "content_type": [
      "vocabulary",
      "wordtranslations"
    ],
    "object_id": "5",
    "object_repr": "`Take the mickey` is translated as `Обсуждать кого-то` (translation was added at 2023-09-18 21:19:58.344808+00:00)",
    "action_flag": 1,
    "change_message": "[{\"added\": {}}]"
  }
},
{
  "model": "admin.logentry",
  "pk": 61,
  "fields": {
    "action_time": "2023-09-18T21:21:36.918Z",
    "user": [
      "admin"
    ],
    "content_type": [
      "vocabulary",
      "translation"
    ],
    "object_id": "6",
    "object_repr": "Bless you",
    "action_flag": 1,
    "change_message": "[{\"added\": {}}]"
  }
},
{
  "model": "admin.logentry",
  "pk": 62,
  "fields": {
    "action_time": "2023-09-18T21:21:43.612Z",
    "user": [
      "admin"
    ],
    "content_type": [
      "vocabulary",
      "wordtranslations"
    ],
    "object_id": "6",
    "object_repr": "`Salud` is translated as `Bless you` (translation was added at 2023-09-18 21:21:43.610697+00:00)",
    "action_flag": 1,
    "change_message": "[{\"added\": {}}]"
  }
},
{
  "model": "admin.logentry",
  "pk": 63,
  "fields": {
    "action_time": "2023-09-18T21:22:33.716Z",
    "user": [
      "admin"
    ],
    "content_type": [
      "vocabulary",
      "translation"
    ],
    "object_id": "7",
    "object_repr": "Time",
    "action_flag": 1,
    "change_message": "[{\"added\": {}}]"
  }
},
{
  "model": "admin.logentry",
  "pk": 64,
  "fields": {
    "action_time": "2023-09-18T21:22:52.296Z",
    "user": [
      "admin"
    ],
    "content_type": [
      "vocabulary",
      "wordtranslations"
    ],
    "object_id": "7",
    "object_repr": "`Tiempo` is translated as `Time` (translation was added at 2023-09-18 21:22:52.294473+00:00)",
    "action_flag": 1,
    "change_message": "[{\"added\": {}}]"
  }
},
{
  "model": "admin.logentry",
  "pk": 65,
  "fields": {
    "action_time": "2023-09-18T21:24:49.861Z",
    "user": [
      "admin"
    ],
    "content_type": [
      "vocabulary",
      "usageexample"
    ],
    "object_id": "5",
    "object_repr": "Non-profit institution",
    "action_flag": 1,
    "change_message": "[{\"added\": {}}]"
  }
},
{
  "model": "admin.logentry",
  "pk": 66,
  "fields": {
    "action_time": "2023-09-18T21:24:51.914Z",
    "user": [
      "admin"
    ],
    "content_type": [
      "vocabulary",
      "wordusageexamples"
    ],
    "object_id": "5",
    "object_repr": "Usage example of `Non-profit`: Non-profit institution (example was added at 2023-09-18 21:24:51.911643+00:00)",
    "action_flag": 1,
    "change_message": "[{\"added\": {}}]"
  }
},
{
  "model": "admin.logentry",
  "pk": 67,
  "fields": {
    "action_time": "2023-09-18T21:25:50.419Z",
    "user": [
      "admin"
    ],
    "content_type": [
      "vocabulary",
      "definition"
    ],
    "object_id": "3",
    "object_repr": "Finish with consequences",
    "action_flag": 1,
    "change_message": "[{\"added\": {}}]"
  }
},
{
  "model": "admin.logentry",
  "pk": 68,
  "fields": {
    "action_time": "2023-09-18T21:25:51.712Z",
    "user": [
      "admin"
    ],
    "content_type": [
      "vocabulary",
      "worddefinitions"
    ],
    "object_id": "3",
    "object_repr": "`End up with` means `Finish with consequences` (definition was added at 2023-09-18 21:25:51.710395+00:00)",
    "action_flag": 1,
    "change_message": "[{\"added\": {}}]"
  }
},
{
  "model": "admin.logentry",
  "pk": 69,
  "fields": {
    "action_time": "2023-09-18T21:26:58.711Z",
    "user": [
      "admin"
    ],
    "content_type": [
      "vocabulary",
      "word"
    ],
    "object_id": "14",
    "object_repr": "Increase",
    "action_flag": 1,
    "change_message": "[{\"added\": {}}]"
  }
},
{
  "model": "admin.logentry",
  "pk": 70,
  "fields": {
    "action_time": "2023-09-18T21:27:01.296Z",
    "user": [
      "admin"
    ],
    "content_type": [
      "vocabulary",
      "synonym"
    ],
    "object_id": "1",
    "object_repr": "`Hike` is synonym for `Increase`",
    "action_flag": 1,
    "change_message": "[{\"added\": {}}]"
  }
},
{
  "model": "admin.logentry",
  "pk": 71,
  "fields": {
    "action_time": "2023-09-18T21:29:26.434Z",
    "user": [
      "admin"
    ],
    "content_type": [
      "vocabulary",
      "word"
    ],
    "object_id": "15",
    "object_repr": "Do your best",
    "action_flag": 1,
    "change_message": "[{\"added\": {}}]"
  }
},
{
  "model": "admin.logentry",
  "pk": 72,
  "fields": {
    "action_time": "2023-09-18T21:29:27.935Z",
    "user": [
      "admin"
    ],
    "content_type": [
      "vocabulary",
      "synonym"
    ],
    "object_id": "2",
    "object_repr": "`Go to greate lengths` is synonym for `Do your best`",
    "action_flag": 1,
    "change_message": "[{\"added\": {}}]"
  }
}
]
