[
{
  "model": "sites.site",
  "fields": {
    "domain": "example.com",
    "name": "example.com"
  }
},
{
  "model": "vocabulary.type",
  "pk": "555b8a8c-2ea6-445b-899e-1bea4b363b90",
  "fields": {
    "created": "2024-05-25T14:17:11.447Z",
    "modified": "2024-05-25T14:17:11.447Z",
    "slug": "noun",
    "name": "Noun",
    "name_ru": "Noun",
    "name_en": null
  }
},
{
  "model": "vocabulary.type",
  "pk": "5f1029da-13b1-4e7a-9182-f1e9f5f993f0",
  "fields": {
    "created": "2024-05-25T14:17:11.552Z",
    "modified": "2024-05-25T14:17:11.552Z",
    "slug": "gerund",
    "name": "Gerund",
    "name_ru": "Gerund",
    "name_en": null
  }
},
{
  "model": "vocabulary.type",
  "pk": "5f9d79da-e119-4902-9fd2-e11013f618e6",
  "fields": {
    "created": "2024-05-25T14:17:11.506Z",
    "modified": "2024-05-25T14:17:11.507Z",
    "slug": "pronoun",
    "name": "Pronoun",
    "name_ru": "Pronoun",
    "name_en": null
  }
},
{
  "model": "vocabulary.type",
  "pk": "8f19279e-b58c-4e64-bba8-f341a1a05759",
  "fields": {
    "created": "2024-05-25T14:17:11.637Z",
    "modified": "2024-05-25T14:17:11.637Z",
    "slug": "collocation",
    "name": "Collocation",
    "name_ru": "Collocation",
    "name_en": null
  }
},
{
  "model": "vocabulary.type",
  "pk": "8f25495d-f58f-4292-a02c-7c67dcc76876",
  "fields": {
    "created": "2024-05-25T14:17:11.534Z",
    "modified": "2024-05-25T14:17:11.534Z",
    "slug": "particle",
    "name": "Particle",
    "name_ru": "Particle",
    "name_en": null
  }
},
{
  "model": "vocabulary.type",
  "pk": "9bd3ee0b-e1af-4535-8fd6-04d3217c21b9",
  "fields": {
    "created": "2024-05-25T14:17:11.471Z",
    "modified": "2024-05-25T14:17:11.471Z",
    "slug": "verb",
    "name": "Verb",
    "name_ru": "Verb",
    "name_en": null
  }
},
{
  "model": "vocabulary.type",
  "pk": "9bfd184a-7201-4590-9543-2c1bd1d53e68",
  "fields": {
    "created": "2024-05-25T14:17:11.525Z",
    "modified": "2024-05-25T14:17:11.525Z",
    "slug": "union",
    "name": "Union",
    "name_ru": "Union",
    "name_en": null
  }
},
{
  "model": "vocabulary.type",
  "pk": "a4520bdd-b78e-4b1a-a6d4-c68bb9a317ef",
  "fields": {
    "created": "2024-05-25T14:17:11.588Z",
    "modified": "2024-05-25T14:17:11.588Z",
    "slug": "interjection",
    "name": "Interjection",
    "name_ru": "Interjection",
    "name_en": null
  }
},
{
  "model": "vocabulary.type",
  "pk": "a54fa6bb-abf5-4aa0-b281-c2ddeb961183",
  "fields": {
    "created": "2024-05-25T14:17:11.611Z",
    "modified": "2024-05-25T14:17:11.611Z",
    "slug": "idiom",
    "name": "Idiom",
    "name_ru": "Idiom",
    "name_en": null
  }
},
{
  "model": "vocabulary.type",
  "pk": "a77678c8-bc99-4194-8eef-7e6965677aa2",
  "fields": {
    "created": "2024-05-25T14:17:11.572Z",
    "modified": "2024-05-25T14:17:11.572Z",
    "slug": "predicative",
    "name": "Predicative",
    "name_ru": "Predicative",
    "name_en": null
  }
},
{
  "model": "vocabulary.type",
  "pk": "a7b89432-0563-4ec6-86e0-236d41d86434",
  "fields": {
    "created": "2024-05-25T14:17:11.582Z",
    "modified": "2024-05-25T14:17:11.582Z",
    "slug": "numeral",
    "name": "Numeral",
    "name_ru": "Numeral",
    "name_en": null
  }
},
{
  "model": "vocabulary.type",
  "pk": "afbedc9b-8e42-4be4-99e7-35c66ceb4305",
  "fields": {
    "created": "2024-05-25T14:17:11.623Z",
    "modified": "2024-05-25T14:17:11.623Z",
    "slug": "quote",
    "name": "Quote",
    "name_ru": "Quote",
    "name_en": null
  }
},
{
  "model": "vocabulary.type",
  "pk": "b1404f04-a6fb-42b0-b502-c66888120430",
  "fields": {
    "created": "2024-05-25T14:17:11.494Z",
    "modified": "2024-05-25T14:17:11.494Z",
    "slug": "adverb",
    "name": "Adverb",
    "name_ru": "Adverb",
    "name_en": null
  }
},
{
  "model": "vocabulary.type",
  "pk": "b3b74020-68df-47ec-bc60-2352529a7e3b",
  "fields": {
    "created": "2024-05-25T14:17:11.515Z",
    "modified": "2024-05-25T14:17:11.515Z",
    "slug": "preposition",
    "name": "Preposition",
    "name_ru": "Preposition",
    "name_en": null
  }
},
{
  "model": "vocabulary.type",
  "pk": "b3dbd2f7-19d7-4ef6-897d-8f848204531f",
  "fields": {
    "created": "2024-05-25T14:17:11.563Z",
    "modified": "2024-05-25T14:17:11.563Z",
    "slug": "article",
    "name": "Article",
    "name_ru": "Article",
    "name_en": null
  }
},
{
  "model": "vocabulary.type",
  "pk": "c8ed95ac-fa55-4cbd-a341-910e3c813f14",
  "fields": {
    "created": "2024-05-25T14:17:11.544Z",
    "modified": "2024-05-25T14:17:11.544Z",
    "slug": "participle",
    "name": "Participle",
    "name_ru": "Participle",
    "name_en": null
  }
},
{
  "model": "vocabulary.type",
  "pk": "d4ec29a5-43af-4f27-8d1d-19f47cba31fb",
  "fields": {
    "created": "2024-05-25T14:17:11.484Z",
    "modified": "2024-05-25T14:17:11.484Z",
    "slug": "adjective",
    "name": "Adjective",
    "name_ru": "Adjective",
    "name_en": null
  }
},
{
  "model": "vocabulary.type",
  "pk": "db6a0120-8739-4715-8f01-c10937d9ff7c",
  "fields": {
    "created": "2024-05-25T14:17:11.648Z",
    "modified": "2024-05-25T14:17:11.648Z",
    "slug": "proverb",
    "name": "Proverb",
    "name_ru": "Proverb",
    "name_en": null
  }
},
{
  "model": "vocabulary.type",
  "pk": "fd5772e9-2aea-4a17-b635-e2d6a7c21128",
  "fields": {
    "created": "2024-05-25T14:17:11.601Z",
    "modified": "2024-05-25T14:17:11.601Z",
    "slug": "phrase",
    "name": "Phrase",
    "name_ru": "Phrase",
    "name_en": null
  }
},
{
  "model": "languages.language",
  "pk": "00e51ef6-1e11-4304-82c2-e5d8d09bded2",
  "fields": {
    "name": "Swedish",
    "name_local": "svenska",
    "isocode": "sv",
    "sorting": 0,
    "learning_available": false,
    "interface_available": false,
    "flag_icon": ""
  }
},
{
  "model": "languages.language",
  "pk": "04840df3-b012-4f2b-b27a-84cd752f8f84",
  "fields": {
    "name": "Slovenian",
    "name_local": "Slovenščina",
    "isocode": "sl",
    "sorting": 0,
    "learning_available": false,
    "interface_available": false,
    "flag_icon": ""
  }
},
{
  "model": "languages.language",
  "pk": "065db7d9-fa4a-4459-bdc9-645e283226da",
  "fields": {
    "name": "Tajik",
    "name_local": "тоҷикӣ",
    "isocode": "tg",
    "sorting": 0,
    "learning_available": false,
    "interface_available": false,
    "flag_icon": ""
  }
},
{
  "model": "languages.language",
  "pk": "0c4daf78-fe32-42d0-bafb-98f898f1168d",
  "fields": {
    "name": "Estonian",
    "name_local": "eesti",
    "isocode": "et",
    "sorting": 0,
    "learning_available": false,
    "interface_available": false,
    "flag_icon": ""
  }
},
{
  "model": "languages.language",
  "pk": "0dce37e0-780b-44d9-a052-c7ed70c7e81a",
  "fields": {
    "name": "Albanian",
    "name_local": "shqip",
    "isocode": "sq",
    "sorting": 0,
    "learning_available": false,
    "interface_available": false,
    "flag_icon": ""
  }
},
{
  "model": "languages.language",
  "pk": "0f77304f-f6ca-43b8-b84e-2cc43450aaf1",
  "fields": {
    "name": "Serbian",
    "name_local": "српски",
    "isocode": "sr",
    "sorting": 0,
    "learning_available": false,
    "interface_available": false,
    "flag_icon": ""
  }
},
{
  "model": "languages.language",
  "pk": "107aa6f1-21ae-47fb-b4e8-f4ce1e0d7e9f",
  "fields": {
    "name": "Urdu",
    "name_local": "اردو",
    "isocode": "ur",
    "sorting": 0,
    "learning_available": false,
    "interface_available": false,
    "flag_icon": ""
  }
},
{
  "model": "languages.language",
  "pk": "108c773b-6ebf-45aa-8796-b9784c8ce771",
  "fields": {
    "name": "Bengali",
    "name_local": "বাংলা",
    "isocode": "bn",
    "sorting": 0,
    "learning_available": false,
    "interface_available": false,
    "flag_icon": ""
  }
},
{
  "model": "languages.language",
  "pk": "11823028-54ba-4ff0-bf91-152cd686e680",
  "fields": {
    "name": "Belarusian",
    "name_local": "беларуская",
    "isocode": "be",
    "sorting": 0,
    "learning_available": false,
    "interface_available": false,
    "flag_icon": ""
  }
},
{
  "model": "languages.language",
  "pk": "15b53f29-fe2b-4495-a31d-84177778183f",
  "fields": {
    "name": "Tamil",
    "name_local": "தமிழ்",
    "isocode": "ta",
    "sorting": 0,
    "learning_available": false,
    "interface_available": false,
    "flag_icon": ""
  }
},
{
  "model": "languages.language",
  "pk": "19d99430-76ea-42d8-aed4-ccbf40fc9c53",
  "fields": {
    "name": "Dutch",
    "name_local": "Nederlands",
    "isocode": "nl",
    "sorting": 1,
    "learning_available": false,
    "interface_available": false,
    "flag_icon": ""
  }
},
{
  "model": "languages.language",
  "pk": "2154e569-ebf7-49fe-9118-778257fab037",
  "fields": {
    "name": "French",
    "name_local": "français",
    "isocode": "fr",
    "sorting": 2,
    "learning_available": true,
    "interface_available": false,
    "flag_icon": "languages/flag_icons/languages/images/flag_icons/fr_v728OsQ.svg"
  }
},
{
  "model": "languages.language",
  "pk": "304e1d76-9691-45fa-8285-ece2205c877c",
  "fields": {
    "name": "Spanish",
    "name_local": "español",
    "isocode": "es",
    "sorting": 2,
    "learning_available": true,
    "interface_available": false,
    "flag_icon": "languages/flag_icons/languages/images/flag_icons/es_x4tqnLo.svg"
  }
},
{
  "model": "languages.language",
  "pk": "34e7ba4d-01f0-473b-8e4f-37285d2a178b",
  "fields": {
    "name": "Ossetic",
    "name_local": "Ирон",
    "isocode": "os",
    "sorting": 0,
    "learning_available": false,
    "interface_available": false,
    "flag_icon": ""
  }
},
{
  "model": "languages.language",
  "pk": "37b2830d-5886-4527-8592-388be22ddc99",
  "fields": {
    "name": "Greek",
    "name_local": "Ελληνικά",
    "isocode": "el",
    "sorting": 0,
    "learning_available": false,
    "interface_available": false,
    "flag_icon": ""
  }
},
{
  "model": "languages.language",
  "pk": "3867675c-b7e5-4a01-9ecc-4d08573c9c3b",
  "fields": {
    "name": "Marathi",
    "name_local": "मराठी",
    "isocode": "mr",
    "sorting": 0,
    "learning_available": false,
    "interface_available": false,
    "flag_icon": ""
  }
},
{
  "model": "languages.language",
  "pk": "38f97bbb-963d-420b-a4ed-0de7bbe6fbcd",
  "fields": {
    "name": "Turkish",
    "name_local": "Türkçe",
    "isocode": "tr",
    "sorting": 1,
    "learning_available": false,
    "interface_available": false,
    "flag_icon": ""
  }
},
{
  "model": "languages.language",
  "pk": "40afe991-0baa-46ef-932a-1345a1073a23",
  "fields": {
    "name": "Basque",
    "name_local": "Basque",
    "isocode": "eu",
    "sorting": 0,
    "learning_available": false,
    "interface_available": false,
    "flag_icon": ""
  }
},
{
  "model": "languages.language",
  "pk": "410e261c-9b62-4a82-b1c4-a80acf3e5ea4",
  "fields": {
    "name": "Welsh",
    "name_local": "Cymraeg",
    "isocode": "cy",
    "sorting": 0,
    "learning_available": false,
    "interface_available": false,
    "flag_icon": ""
  }
},
{
  "model": "languages.language",
  "pk": "42a30eb9-5726-4c36-90d5-ea170a6312b4",
  "fields": {
    "name": "Norwegian Bokmal",
    "name_local": "norsk (bokmål)",
    "isocode": "nb",
    "sorting": 0,
    "learning_available": false,
    "interface_available": false,
    "flag_icon": ""
  }
},
{
  "model": "languages.language",
  "pk": "43eef01a-fd5f-49ee-9cde-643b69aa4cdb",
  "fields": {
    "name": "Finnish",
    "name_local": "suomi",
    "isocode": "fi",
    "sorting": 0,
    "learning_available": false,
    "interface_available": false,
    "flag_icon": ""
  }
},
{
  "model": "languages.language",
  "pk": "491bf9aa-262d-498c-9635-b4c08fe8a0c9",
  "fields": {
    "name": "Ido",
    "name_local": "ido",
    "isocode": "io",
    "sorting": 0,
    "learning_available": false,
    "interface_available": false,
    "flag_icon": ""
  }
},
{
  "model": "languages.language",
  "pk": "497fd41b-7d4d-4eb9-8a83-2259278a8224",
  "fields": {
    "name": "Kannada",
    "name_local": "Kannada",
    "isocode": "kn",
    "sorting": 0,
    "learning_available": false,
    "interface_available": false,
    "flag_icon": ""
  }
},
{
  "model": "languages.language",
  "pk": "4aef076e-b88e-40de-9630-6effc36c28ea",
  "fields": {
    "name": "Khmer",
    "name_local": "Khmer",
    "isocode": "km",
    "sorting": 0,
    "learning_available": false,
    "interface_available": false,
    "flag_icon": ""
  }
},
{
  "model": "languages.language",
  "pk": "4aef2d6c-7634-46d4-85d5-6c30abea6865",
  "fields": {
    "name": "Italian",
    "name_local": "italiano",
    "isocode": "it",
    "sorting": 2,
    "learning_available": true,
    "interface_available": false,
    "flag_icon": "languages/flag_icons/languages/images/flag_icons/it_XpQwNaX.svg"
  }
},
{
  "model": "languages.language",
  "pk": "4da826ff-74f1-4c5a-92c5-5f5c3e4cab48",
  "fields": {
    "name": "Interlingua",
    "name_local": "Interlingua",
    "isocode": "ia",
    "sorting": 0,
    "learning_available": false,
    "interface_available": false,
    "flag_icon": ""
  }
},
{
  "model": "languages.language",
  "pk": "4f4dd421-c706-4008-9cad-43252f27f7af",
  "fields": {
    "name": "Luxembourgish",
    "name_local": "Lëtzebuergesch",
    "isocode": "lb",
    "sorting": 0,
    "learning_available": false,
    "interface_available": false,
    "flag_icon": ""
  }
},
{
  "model": "languages.language",
  "pk": "51abb28f-67f5-46db-8390-ed98542b97d6",
  "fields": {
    "name": "Hungarian",
    "name_local": "Magyar",
    "isocode": "hu",
    "sorting": 0,
    "learning_available": false,
    "interface_available": false,
    "flag_icon": ""
  }
},
{
  "model": "languages.language",
  "pk": "5222c6f3-1103-4e98-9411-4f8457a0d65f",
  "fields": {
    "name": "Persian",
    "name_local": "فارسی",
    "isocode": "fa",
    "sorting": 0,
    "learning_available": false,
    "interface_available": false,
    "flag_icon": ""
  }
},
{
  "model": "languages.language",
  "pk": "566f0d97-ec6e-4b66-8d7f-55c05019c25f",
  "fields": {
    "name": "Kyrgyz",
    "name_local": "Кыргызча",
    "isocode": "ky",
    "sorting": 0,
    "learning_available": false,
    "interface_available": false,
    "flag_icon": ""
  }
},
{
  "model": "languages.language",
  "pk": "58596729-ca1c-47ff-82c4-b3a92e784136",
  "fields": {
    "name": "Arabic",
    "name_local": "العربيّة",
    "isocode": "ar",
    "sorting": 1,
    "learning_available": false,
    "interface_available": false,
    "flag_icon": ""
  }
},
{
  "model": "languages.language",
  "pk": "5b284c6f-7220-42ce-a5cf-8c37adc55cb7",
  "fields": {
    "name": "Polish",
    "name_local": "polski",
    "isocode": "pl",
    "sorting": 0,
    "learning_available": false,
    "interface_available": false,
    "flag_icon": ""
  }
},
{
  "model": "languages.language",
  "pk": "5f644b27-3b8e-4ad6-9105-170b82a8bcbb",
  "fields": {
    "name": "Nepali",
    "name_local": "नेपाली",
    "isocode": "ne",
    "sorting": 0,
    "learning_available": false,
    "interface_available": false,
    "flag_icon": ""
  }
},
{
  "model": "languages.language",
  "pk": "62f32d4c-1918-49a3-a41b-ae027a6f0d85",
  "fields": {
    "name": "German",
    "name_local": "Deutsch",
    "isocode": "de",
    "sorting": 2,
    "learning_available": true,
    "interface_available": false,
    "flag_icon": "languages/flag_icons/languages/images/flag_icons/de_iYdGq3B.svg"
  }
},
{
  "model": "languages.language",
  "pk": "66cf2f06-2c7a-4d9e-9934-39fd7cc2b736",
  "fields": {
    "name": "Macedonian",
    "name_local": "Македонски",
    "isocode": "mk",
    "sorting": 0,
    "learning_available": false,
    "interface_available": false,
    "flag_icon": ""
  }
},
{
  "model": "languages.language",
  "pk": "6c3468b8-0691-4568-a792-8ea112374395",
  "fields": {
    "name": "Thai",
    "name_local": "ภาษาไทย",
    "isocode": "th",
    "sorting": 0,
    "learning_available": false,
    "interface_available": false,
    "flag_icon": ""
  }
},
{
  "model": "languages.language",
  "pk": "6e159ce6-7c36-47dc-ac5d-b0c8135bd5e1",
  "fields": {
    "name": "Slovak",
    "name_local": "Slovensky",
    "isocode": "sk",
    "sorting": 0,
    "learning_available": false,
    "interface_available": false,
    "flag_icon": ""
  }
},
{
  "model": "languages.language",
  "pk": "70a2b176-cf60-49d6-b0f9-0811749033e6",
  "fields": {
    "name": "Afrikaans",
    "name_local": "Afrikaans",
    "isocode": "af",
    "sorting": 0,
    "learning_available": false,
    "interface_available": false,
    "flag_icon": ""
  }
},
{
  "model": "languages.language",
  "pk": "7285c8d2-cedc-40d5-8b1e-4fe774060b6c",
  "fields": {
    "name": "Tatar",
    "name_local": "Татарча",
    "isocode": "tt",
    "sorting": 0,
    "learning_available": false,
    "interface_available": false,
    "flag_icon": ""
  }
},
{
  "model": "languages.language",
  "pk": "72f81d92-2e62-4c3e-9f16-47921e4f73cd",
  "fields": {
    "name": "Japanese",
    "name_local": "日本語",
    "isocode": "ja",
    "sorting": 2,
    "learning_available": false,
    "interface_available": false,
    "flag_icon": ""
  }
},
{
  "model": "languages.language",
  "pk": "73fecce0-42ac-40a5-ae08-b70ea0a8e30c",
  "fields": {
    "name": "Burmese",
    "name_local": "မြန်မာဘာသာ",
    "isocode": "my",
    "sorting": 0,
    "learning_available": false,
    "interface_available": false,
    "flag_icon": ""
  }
},
{
  "model": "languages.language",
  "pk": "7447ecbd-2444-442a-a2f5-cb31ef87a68c",
  "fields": {
    "name": "Kazakh",
    "name_local": "Қазақ",
    "isocode": "kk",
    "sorting": 0,
    "learning_available": false,
    "interface_available": false,
    "flag_icon": ""
  }
},
{
  "model": "languages.language",
  "pk": "7ae83cf2-4fe2-44ca-b268-78d0330f3e6f",
  "fields": {
    "name": "Igbo",
    "name_local": "Asụsụ Ìgbò",
    "isocode": "ig",
    "sorting": 0,
    "learning_available": false,
    "interface_available": false,
    "flag_icon": ""
  }
},
{
  "model": "languages.language",
  "pk": "7d39ad2d-09f4-4198-96f8-fe098cc7abe3",
  "fields": {
    "name": "Norwegian",
    "name_local": "norsk",
    "isocode": "no",
    "sorting": 0,
    "learning_available": false,
    "interface_available": false,
    "flag_icon": ""
  }
},
{
  "model": "languages.language",
  "pk": "7f0125e7-eb0c-4e64-aebf-d872ac078f1f",
  "fields": {
    "name": "Norwegian Nynorsk",
    "name_local": "norsk (nynorsk)",
    "isocode": "nn",
    "sorting": 0,
    "learning_available": false,
    "interface_available": false,
    "flag_icon": ""
  }
},
{
  "model": "languages.language",
  "pk": "849c9425-2a0d-4843-8adf-3c35092a19fa",
  "fields": {
    "name": "English",
    "name_local": "English",
    "isocode": "en",
    "sorting": 3,
    "learning_available": true,
    "interface_available": true,
    "flag_icon": "languages/flag_icons/languages/images/flag_icons/en_KDkCGvY.svg"
  }
},
{
  "model": "languages.language",
  "pk": "864c60e7-abfc-4b2b-88a1-838291c7ab76",
  "fields": {
    "name": "Bosnian",
    "name_local": "bosanski",
    "isocode": "bs",
    "sorting": 0,
    "learning_available": false,
    "interface_available": false,
    "flag_icon": ""
  }
},
{
  "model": "languages.language",
  "pk": "86abbfa1-7ead-43e9-8925-d0dfb0cbfa45",
  "fields": {
    "name": "Indonesian",
    "name_local": "Bahasa Indonesia",
    "isocode": "id",
    "sorting": 0,
    "learning_available": false,
    "interface_available": false,
    "flag_icon": ""
  }
},
{
  "model": "languages.language",
  "pk": "88fd5f16-4eb2-4e09-b0ba-fb5c69fe2aa5",
  "fields": {
    "name": "Romanian",
    "name_local": "Română",
    "isocode": "ro",
    "sorting": 1,
    "learning_available": false,
    "interface_available": false,
    "flag_icon": ""
  }
},
{
  "model": "languages.language",
  "pk": "8ed967a2-1cbc-45fc-8a8b-e85908dcc084",
  "fields": {
    "name": "Irish",
    "name_local": "Gaeilge",
    "isocode": "ga",
    "sorting": 0,
    "learning_available": false,
    "interface_available": false,
    "flag_icon": ""
  }
},
{
  "model": "languages.language",
  "pk": "953ee94e-2e35-42b1-8de3-4589eb291b6f",
  "fields": {
    "name": "Malay",
    "name_local": "Bahasa Melayu",
    "isocode": "ms",
    "sorting": 0,
    "learning_available": false,
    "interface_available": false,
    "flag_icon": ""
  }
},
{
  "model": "languages.language",
  "pk": "9780f8f8-f69e-40d7-a332-8ca91a7a85d3",
  "fields": {
    "name": "Danish",
    "name_local": "dansk",
    "isocode": "da",
    "sorting": 0,
    "learning_available": false,
    "interface_available": false,
    "flag_icon": ""
  }
},
{
  "model": "languages.language",
  "pk": "97e1e00b-ac80-433a-88ab-c4e1abf47804",
  "fields": {
    "name": "Czech",
    "name_local": "česky",
    "isocode": "cs",
    "sorting": 0,
    "learning_available": false,
    "interface_available": false,
    "flag_icon": ""
  }
},
{
  "model": "languages.language",
  "pk": "9d09f2c8-1416-4b24-8c53-f10db26806dd",
  "fields": {
    "name": "Malayalam",
    "name_local": "മലയാളം",
    "isocode": "ml",
    "sorting": 0,
    "learning_available": false,
    "interface_available": false,
    "flag_icon": ""
  }
},
{
  "model": "languages.language",
  "pk": "a0bc1690-7242-4e49-baaa-0754dcb181ce",
  "fields": {
    "name": "Hindi",
    "name_local": "हिंदी",
    "isocode": "hi",
    "sorting": 0,
    "learning_available": false,
    "interface_available": false,
    "flag_icon": ""
  }
},
{
  "model": "languages.language",
  "pk": "a16d6d76-2538-4969-9af3-ce4b4261f136",
  "fields": {
    "name": "Portuguese",
    "name_local": "Português",
    "isocode": "pt",
    "sorting": 0,
    "learning_available": false,
    "interface_available": false,
    "flag_icon": ""
  }
},
{
  "model": "languages.language",
  "pk": "a7a80dc2-aff8-41cf-a9b2-0d0f20a2ad8e",
  "fields": {
    "name": "Frisian",
    "name_local": "frysk",
    "isocode": "fy",
    "sorting": 0,
    "learning_available": false,
    "interface_available": false,
    "flag_icon": ""
  }
},
{
  "model": "languages.language",
  "pk": "a9ac9346-2833-4c0b-aea7-11127b629a1b",
  "fields": {
    "name": "Esperanto",
    "name_local": "Esperanto",
    "isocode": "eo",
    "sorting": 0,
    "learning_available": false,
    "interface_available": false,
    "flag_icon": ""
  }
},
{
  "model": "languages.language",
  "pk": "ae2508d7-d675-410a-ab8f-c16257661bed",
  "fields": {
    "name": "Icelandic",
    "name_local": "Íslenska",
    "isocode": "is",
    "sorting": 0,
    "learning_available": false,
    "interface_available": false,
    "flag_icon": ""
  }
},
{
  "model": "languages.language",
  "pk": "afd96460-dbcb-4e30-9b91-dfa4d49d5116",
  "fields": {
    "name": "Russian",
    "name_local": "Русский",
    "isocode": "ru",
    "sorting": 2,
    "learning_available": true,
    "interface_available": true,
    "flag_icon": "languages/flag_icons/languages/images/flag_icons/ru_ZFRBiS6.svg"
  }
},
{
  "model": "languages.language",
  "pk": "b74a91e8-6f60-4779-8edf-1a40b7f4bb64",
  "fields": {
    "name": "Azerbaijani",
    "name_local": "Azərbaycanca",
    "isocode": "az",
    "sorting": 0,
    "learning_available": false,
    "interface_available": false,
    "flag_icon": ""
  }
},
{
  "model": "languages.language",
  "pk": "b758b6a8-6c8b-49fc-896f-36724945fae2",
  "fields": {
    "name": "Punjabi",
    "name_local": "Punjabi",
    "isocode": "pa",
    "sorting": 0,
    "learning_available": false,
    "interface_available": false,
    "flag_icon": ""
  }
},
{
  "model": "languages.language",
  "pk": "b9c84ae9-38ce-4f73-8e38-5bc3971360a2",
  "fields": {
    "name": "Armenian",
    "name_local": "հայերեն",
    "isocode": "hy",
    "sorting": 0,
    "learning_available": false,
    "interface_available": false,
    "flag_icon": ""
  }
},
{
  "model": "languages.language",
  "pk": "ba8cff0d-7105-4bfe-80bb-e2c4e3acc38f",
  "fields": {
    "name": "Lithuanian",
    "name_local": "Lietuviškai",
    "isocode": "lt",
    "sorting": 0,
    "learning_available": false,
    "interface_available": false,
    "flag_icon": ""
  }
},
{
  "model": "languages.language",
  "pk": "bbaabcbb-82bd-4563-a6f5-00aa43a20391",
  "fields": {
    "name": "Bulgarian",
    "name_local": "български",
    "isocode": "bg",
    "sorting": 0,
    "learning_available": false,
    "interface_available": false,
    "flag_icon": ""
  }
},
{
  "model": "languages.language",
  "pk": "bbf36457-9bd0-4b0c-bbbb-d83961c5dcdb",
  "fields": {
    "name": "Vietnamese",
    "name_local": "Tiếng Việt",
    "isocode": "vi",
    "sorting": 0,
    "learning_available": false,
    "interface_available": false,
    "flag_icon": ""
  }
},
{
  "model": "languages.language",
  "pk": "bcd5b73e-bdc7-42f4-a20f-73ce0f91ac7b",
  "fields": {
    "name": "Catalan",
    "name_local": "català",
    "isocode": "ca",
    "sorting": 0,
    "learning_available": false,
    "interface_available": false,
    "flag_icon": ""
  }
},
{
  "model": "languages.language",
  "pk": "be9ce7d6-ddd4-4536-a26a-0a864897f4b0",
  "fields": {
    "name": "Hebrew",
    "name_local": "עברית",
    "isocode": "he",
    "sorting": 0,
    "learning_available": false,
    "interface_available": false,
    "flag_icon": ""
  }
},
{
  "model": "languages.language",
  "pk": "bfb61001-09ac-4274-82f7-a4f89d4d7ebf",
  "fields": {
    "name": "Uzbek",
    "name_local": "oʻzbek tili",
    "isocode": "uz",
    "sorting": 0,
    "learning_available": false,
    "interface_available": false,
    "flag_icon": ""
  }
},
{
  "model": "languages.language",
  "pk": "c0bd11cb-4158-4676-9aef-14c6fc29a092",
  "fields": {
    "name": "Swahili",
    "name_local": "Kiswahili",
    "isocode": "sw",
    "sorting": 0,
    "learning_available": false,
    "interface_available": false,
    "flag_icon": ""
  }
},
{
  "model": "languages.language",
  "pk": "c168988f-2982-4bf7-a230-2c7f5b6d3d3a",
  "fields": {
    "name": "Georgian",
    "name_local": "ქართული",
    "isocode": "ka",
    "sorting": 0,
    "learning_available": false,
    "interface_available": false,
    "flag_icon": ""
  }
},
{
  "model": "languages.language",
  "pk": "c512e4a9-0d46-4d1c-9043-0a8ce83a5748",
  "fields": {
    "name": "Scottish Gaelic",
    "name_local": "Gàidhlig",
    "isocode": "gd",
    "sorting": 0,
    "learning_available": false,
    "interface_available": false,
    "flag_icon": ""
  }
},
{
  "model": "languages.language",
  "pk": "c89e8cba-8081-479e-9dab-a45a93add06d",
  "fields": {
    "name": "Latvian",
    "name_local": "latviešu",
    "isocode": "lv",
    "sorting": 0,
    "learning_available": false,
    "interface_available": false,
    "flag_icon": ""
  }
},
{
  "model": "languages.language",
  "pk": "ce1f87d8-be68-440a-836f-73acc2f02fcb",
  "fields": {
    "name": "Telugu",
    "name_local": "తెలుగు",
    "isocode": "te",
    "sorting": 0,
    "learning_available": false,
    "interface_available": false,
    "flag_icon": ""
  }
},
{
  "model": "languages.language",
  "pk": "cfaf9c40-7bef-4665-b3b9-778de2d34f81",
  "fields": {
    "name": "Korean",
    "name_local": "한국어",
    "isocode": "ko",
    "sorting": 2,
    "learning_available": false,
    "interface_available": false,
    "flag_icon": ""
  }
},
{
  "model": "languages.language",
  "pk": "d12019b7-e205-4f3a-848f-825394a5c4e2",
  "fields": {
    "name": "Breton",
    "name_local": "brezhoneg",
    "isocode": "br",
    "sorting": 0,
    "learning_available": false,
    "interface_available": false,
    "flag_icon": ""
  }
},
{
  "model": "languages.language",
  "pk": "ddf41441-46bf-4989-99d8-2a640274735b",
  "fields": {
    "name": "Turkmen",
    "name_local": "Türkmençe",
    "isocode": "tk",
    "sorting": 0,
    "learning_available": false,
    "interface_available": false,
    "flag_icon": ""
  }
},
{
  "model": "languages.language",
  "pk": "ddfe4402-be17-4b13-92d4-c7589d436ab6",
  "fields": {
    "name": "Mongolian",
    "name_local": "Mongolian",
    "isocode": "mn",
    "sorting": 0,
    "learning_available": false,
    "interface_available": false,
    "flag_icon": ""
  }
},
{
  "model": "languages.language",
  "pk": "e4e4aefd-25c6-4df0-bdbd-ea9bf787ff74",
  "fields": {
    "name": "Croatian",
    "name_local": "Hrvatski",
    "isocode": "hr",
    "sorting": 0,
    "learning_available": false,
    "interface_available": false,
    "flag_icon": ""
  }
},
{
  "model": "languages.language",
  "pk": "f888a78d-6f38-49ca-b87f-f1a00b42cd38",
  "fields": {
    "name": "Galician",
    "name_local": "galego",
    "isocode": "gl",
    "sorting": 0,
    "learning_available": false,
    "interface_available": false,
    "flag_icon": ""
  }
},
{
  "model": "languages.language",
  "pk": "fb0616d6-dc90-40dc-ac88-b50bf3d4da59",
  "fields": {
    "name": "Ukrainian",
    "name_local": "Українська",
    "isocode": "uk",
    "sorting": 0,
    "learning_available": false,
    "interface_available": false,
    "flag_icon": ""
  }
},
{
  "model": "languages.languageimage",
  "pk": "0213b5fe-1319-4e67-99fc-ac151e0a0f05",
  "fields": {
    "created": "2024-05-25T14:17:00.139Z",
    "modified": "2024-05-25T14:17:00.139Z",
    "language": "304e1d76-9691-45fa-8285-ece2205c877c",
    "image": "languages/images/languages/images/es_8_GwC3n48.jpg"
  }
},
{
  "model": "languages.languageimage",
  "pk": "11383fd1-c1b0-489e-b1c9-25fc31495e98",
  "fields": {
    "created": "2024-05-25T14:17:00.028Z",
    "modified": "2024-05-25T14:17:00.028Z",
    "language": "304e1d76-9691-45fa-8285-ece2205c877c",
    "image": "languages/images/languages/images/es_3_oEGErhS.jpg"
  }
},
{
  "model": "languages.languageimage",
  "pk": "1607e9fe-759b-4a5e-8720-a94628e40487",
  "fields": {
    "created": "2024-05-25T14:17:00.005Z",
    "modified": "2024-05-25T14:17:00.005Z",
    "language": "304e1d76-9691-45fa-8285-ece2205c877c",
    "image": "languages/images/languages/images/es_2_zH6fMN6.jpg"
  }
},
{
  "model": "languages.languageimage",
  "pk": "17b14a55-87c6-4c62-9876-3b7e1593345b",
  "fields": {
    "created": "2024-05-25T14:16:59.702Z",
    "modified": "2024-05-25T14:16:59.702Z",
    "language": "62f32d4c-1918-49a3-a41b-ae027a6f0d85",
    "image": "languages/images/languages/images/de_4_yeqKeiu.jpg"
  }
},
{
  "model": "languages.languageimage",
  "pk": "18110ab1-47bf-48b8-a1e6-5d6e7215677b",
  "fields": {
    "created": "2024-05-25T14:17:00.782Z",
    "modified": "2024-05-25T14:17:00.782Z",
    "language": "4aef2d6c-7634-46d4-85d5-6c30abea6865",
    "image": "languages/images/languages/images/it_8_tLpMvzY.jpg"
  }
},
{
  "model": "languages.languageimage",
  "pk": "21c37357-0932-4b18-b88a-95bb2eeac75d",
  "fields": {
    "created": "2024-05-25T14:16:59.733Z",
    "modified": "2024-05-25T14:16:59.733Z",
    "language": "62f32d4c-1918-49a3-a41b-ae027a6f0d85",
    "image": "languages/images/languages/images/de_6_ZTtSFu8.jpg"
  }
},
{
  "model": "languages.languageimage",
  "pk": "2767be34-97c0-42b6-8c26-77a97c974bb9",
  "fields": {
    "created": "2024-05-25T14:17:00.283Z",
    "modified": "2024-05-25T14:17:00.283Z",
    "language": "2154e569-ebf7-49fe-9118-778257fab037",
    "image": "languages/images/languages/images/fr_1_LPCjLtW.jpg"
  }
},
{
  "model": "languages.languageimage",
  "pk": "28b04b82-0405-4676-ac97-31b18f329150",
  "fields": {
    "created": "2024-05-25T14:17:00.155Z",
    "modified": "2024-05-25T14:17:00.155Z",
    "language": "304e1d76-9691-45fa-8285-ece2205c877c",
    "image": "languages/images/languages/images/es_9_SqX6GVp.jpg"
  }
},
{
  "model": "languages.languageimage",
  "pk": "28f5128b-4fd7-4762-987b-ccab99cd67c9",
  "fields": {
    "created": "2024-05-25T14:17:00.782Z",
    "modified": "2024-05-25T14:17:00.782Z",
    "language": "4aef2d6c-7634-46d4-85d5-6c30abea6865",
    "image": "languages/images/languages/images/it_9_EAEP61C.jpg"
  }
},
{
  "model": "languages.languageimage",
  "pk": "2e10318e-4313-4d4e-b1f9-4e80f08ad80a",
  "fields": {
    "created": "2024-05-25T14:17:00.097Z",
    "modified": "2024-05-25T14:17:00.097Z",
    "language": "304e1d76-9691-45fa-8285-ece2205c877c",
    "image": "languages/images/languages/images/es_6_1jSRSzq.jpg"
  }
},
{
  "model": "languages.languageimage",
  "pk": "34688e40-d9c9-4c0f-98eb-617ee1d08655",
  "fields": {
    "created": "2024-05-25T14:17:00.391Z",
    "modified": "2024-05-25T14:17:00.391Z",
    "language": "2154e569-ebf7-49fe-9118-778257fab037",
    "image": "languages/images/languages/images/fr_6_AtrnwMO.jpg"
  }
},
{
  "model": "languages.languageimage",
  "pk": "3f410d31-f5c0-4879-a568-a03fef8d421d",
  "fields": {
    "created": "2024-05-25T14:17:00.060Z",
    "modified": "2024-05-25T14:17:00.060Z",
    "language": "304e1d76-9691-45fa-8285-ece2205c877c",
    "image": "languages/images/languages/images/es_5_hUxQQja.jpg"
  }
},
{
  "model": "languages.languageimage",
  "pk": "4bb10322-6d6a-44f8-8d8c-6b707a2040e6",
  "fields": {
    "created": "2024-05-25T14:17:00.689Z",
    "modified": "2024-05-25T14:17:00.689Z",
    "language": "4aef2d6c-7634-46d4-85d5-6c30abea6865",
    "image": "languages/images/languages/images/it_4_TfZ6jiN.jpg"
  }
},
{
  "model": "languages.languageimage",
  "pk": "52da1621-5c2c-4277-8f3d-fa6298365e9c",
  "fields": {
    "created": "2024-05-25T14:16:59.811Z",
    "modified": "2024-05-25T14:16:59.811Z",
    "language": "849c9425-2a0d-4843-8adf-3c35092a19fa",
    "image": "languages/images/languages/images/en_1_DhaIss2.jpg"
  }
},
{
  "model": "languages.languageimage",
  "pk": "5cfbb0f1-2b74-4d78-9fa3-cd5801a48920",
  "fields": {
    "created": "2024-05-25T14:16:59.908Z",
    "modified": "2024-05-25T14:16:59.908Z",
    "language": "849c9425-2a0d-4843-8adf-3c35092a19fa",
    "image": "languages/images/languages/images/en_6_jxpTUzY.jpg"
  }
},
{
  "model": "languages.languageimage",
  "pk": "63ec10a4-7b72-447b-aca3-669fa7b231c5",
  "fields": {
    "created": "2024-05-25T14:16:59.765Z",
    "modified": "2024-05-25T14:16:59.765Z",
    "language": "62f32d4c-1918-49a3-a41b-ae027a6f0d85",
    "image": "languages/images/languages/images/de_8_AxHbu0V.jpg"
  }
},
{
  "model": "languages.languageimage",
  "pk": "64cb17e9-a2e5-4233-aaa9-e472dc15d5b3",
  "fields": {
    "created": "2024-05-25T14:16:59.924Z",
    "modified": "2024-05-25T14:16:59.924Z",
    "language": "849c9425-2a0d-4843-8adf-3c35092a19fa",
    "image": "languages/images/languages/images/en_7_JExaGq1.jpg"
  }
},
{
  "model": "languages.languageimage",
  "pk": "67e1d2b4-17dc-4353-8ab5-88e17ca733e7",
  "fields": {
    "created": "2024-05-25T14:16:59.655Z",
    "modified": "2024-05-25T14:16:59.655Z",
    "language": "62f32d4c-1918-49a3-a41b-ae027a6f0d85",
    "image": "languages/images/languages/images/de_2_Ie8xMjG.jpg"
  }
},
{
  "model": "languages.languageimage",
  "pk": "6caf4bea-6ea4-46e6-9fca-27f5264df409",
  "fields": {
    "created": "2024-05-25T14:17:00.372Z",
    "modified": "2024-05-25T14:17:00.372Z",
    "language": "2154e569-ebf7-49fe-9118-778257fab037",
    "image": "languages/images/languages/images/fr_5_r7xP9YW.jpg"
  }
},
{
  "model": "languages.languageimage",
  "pk": "75faa8fd-373b-4686-99ed-e0d42febd6cb",
  "fields": {
    "created": "2024-05-25T14:17:01.247Z",
    "modified": "2024-05-25T14:17:01.247Z",
    "language": "afd96460-dbcb-4e30-9b91-dfa4d49d5116",
    "image": "languages/images/languages/images/ru_5_ZKGLIqN.jpg"
  }
},
{
  "model": "languages.languageimage",
  "pk": "7b349cf7-b868-495c-9ee5-07644a958fce",
  "fields": {
    "created": "2024-05-25T14:17:00.626Z",
    "modified": "2024-05-25T14:17:00.626Z",
    "language": "4aef2d6c-7634-46d4-85d5-6c30abea6865",
    "image": "languages/images/languages/images/it_1_At0X3uY.jpg"
  }
},
{
  "model": "languages.languageimage",
  "pk": "7c4c10a8-0e44-4d35-80dc-66ed8883e9d7",
  "fields": {
    "created": "2024-05-25T14:16:59.640Z",
    "modified": "2024-05-25T14:16:59.640Z",
    "language": "62f32d4c-1918-49a3-a41b-ae027a6f0d85",
    "image": "languages/images/languages/images/de_1_DLwE4Jf.jpg"
  }
},
{
  "model": "languages.languageimage",
  "pk": "7c4efa51-2b52-46c0-97cc-ad2a3eaa72ad",
  "fields": {
    "created": "2024-05-25T14:17:00.673Z",
    "modified": "2024-05-25T14:17:00.673Z",
    "language": "4aef2d6c-7634-46d4-85d5-6c30abea6865",
    "image": "languages/images/languages/images/it_3_KZePx2E.jpg"
  }
},
{
  "model": "languages.languageimage",
  "pk": "80ea4e91-54a1-4159-8025-8b10040b6663",
  "fields": {
    "created": "2024-05-25T14:16:59.853Z",
    "modified": "2024-05-25T14:16:59.853Z",
    "language": "849c9425-2a0d-4843-8adf-3c35092a19fa",
    "image": "languages/images/languages/images/en_3_Y11vYK1.jpg"
  }
},
{
  "model": "languages.languageimage",
  "pk": "81a8924a-0d6c-4cc5-8373-c646fa7824de",
  "fields": {
    "created": "2024-05-25T14:17:00.751Z",
    "modified": "2024-05-25T14:17:00.751Z",
    "language": "4aef2d6c-7634-46d4-85d5-6c30abea6865",
    "image": "languages/images/languages/images/it_7_R7I6U81.jpg"
  }
},
{
  "model": "languages.languageimage",
  "pk": "8e88dd72-bc97-4ef3-b143-d7db783f8d43",
  "fields": {
    "created": "2024-05-25T14:16:59.987Z",
    "modified": "2024-05-25T14:16:59.987Z",
    "language": "304e1d76-9691-45fa-8285-ece2205c877c",
    "image": "languages/images/languages/images/es_1_4Mo59Pq.jpg"
  }
},
{
  "model": "languages.languageimage",
  "pk": "9c9071df-86f5-4063-978d-05b354749197",
  "fields": {
    "created": "2024-05-25T14:17:00.704Z",
    "modified": "2024-05-25T14:17:00.704Z",
    "language": "4aef2d6c-7634-46d4-85d5-6c30abea6865",
    "image": "languages/images/languages/images/it_5_LwoFBdY.jpg"
  }
},
{
  "model": "languages.languageimage",
  "pk": "aa1df803-2932-4bd4-a5e4-f754ddaa8483",
  "fields": {
    "created": "2024-05-25T14:16:59.939Z",
    "modified": "2024-05-25T14:16:59.939Z",
    "language": "849c9425-2a0d-4843-8adf-3c35092a19fa",
    "image": "languages/images/languages/images/en_8_J8qlYD4.jpg"
  }
},
{
  "model": "languages.languageimage",
  "pk": "ac1fe5dc-a840-4f5d-89a6-d9f84fa4f979",
  "fields": {
    "created": "2024-05-25T14:17:00.735Z",
    "modified": "2024-05-25T14:17:00.735Z",
    "language": "4aef2d6c-7634-46d4-85d5-6c30abea6865",
    "image": "languages/images/languages/images/it_6_N8wOLue.jpg"
  }
},
{
  "model": "languages.languageimage",
  "pk": "b2b0696a-7097-48b5-960d-efdc8179bf93",
  "fields": {
    "created": "2024-05-25T14:17:01.273Z",
    "modified": "2024-05-25T14:17:01.273Z",
    "language": "afd96460-dbcb-4e30-9b91-dfa4d49d5116",
    "image": "languages/images/languages/images/ru_6_gUzKWbA.jpg"
  }
},
{
  "model": "languages.languageimage",
  "pk": "b3e66bc0-9bac-4a8c-873d-dc3dfafeafa6",
  "fields": {
    "created": "2024-05-25T14:17:01.197Z",
    "modified": "2024-05-25T14:17:01.197Z",
    "language": "afd96460-dbcb-4e30-9b91-dfa4d49d5116",
    "image": "languages/images/languages/images/ru_1_SU4bH7q.jpg"
  }
},
{
  "model": "languages.languageimage",
  "pk": "c28a84af-5c59-4da3-9f9f-f9e1f6c3dfce",
  "fields": {
    "created": "2024-05-25T14:16:59.838Z",
    "modified": "2024-05-25T14:16:59.838Z",
    "language": "849c9425-2a0d-4843-8adf-3c35092a19fa",
    "image": "languages/images/languages/images/en_2_XtX1tzE.jpg"
  }
},
{
  "model": "languages.languageimage",
  "pk": "c333966b-70bc-41bb-a102-fb7fa494168c",
  "fields": {
    "created": "2024-05-25T14:17:01.205Z",
    "modified": "2024-05-25T14:17:01.205Z",
    "language": "afd96460-dbcb-4e30-9b91-dfa4d49d5116",
    "image": "languages/images/languages/images/ru_2_JUrEHyA.jpg"
  }
},
{
  "model": "languages.languageimage",
  "pk": "c426a669-6dbe-4b48-abe6-8d001f805610",
  "fields": {
    "created": "2024-05-25T14:17:00.642Z",
    "modified": "2024-05-25T14:17:00.642Z",
    "language": "4aef2d6c-7634-46d4-85d5-6c30abea6865",
    "image": "languages/images/languages/images/it_2_7yqW1LG.jpg"
  }
},
{
  "model": "languages.languageimage",
  "pk": "c7ad59fc-d083-44e9-990e-d26ec1b13703",
  "fields": {
    "created": "2024-05-25T14:17:00.340Z",
    "modified": "2024-05-25T14:17:00.340Z",
    "language": "2154e569-ebf7-49fe-9118-778257fab037",
    "image": "languages/images/languages/images/fr_4_31jfKD0.jpg"
  }
},
{
  "model": "languages.languageimage",
  "pk": "c7b7f7bc-307a-40ec-a79b-e74cedc3e429",
  "fields": {
    "created": "2024-05-25T14:17:01.214Z",
    "modified": "2024-05-25T14:17:01.214Z",
    "language": "afd96460-dbcb-4e30-9b91-dfa4d49d5116",
    "image": "languages/images/languages/images/ru_3_yiyWSQy.jpg"
  }
},
{
  "model": "languages.languageimage",
  "pk": "c937c927-1b1d-4add-82d4-98d1113101d1",
  "fields": {
    "created": "2024-05-25T14:16:59.861Z",
    "modified": "2024-05-25T14:16:59.861Z",
    "language": "849c9425-2a0d-4843-8adf-3c35092a19fa",
    "image": "languages/images/languages/images/en_4_OaikIE3.jpg"
  }
},
{
  "model": "languages.languageimage",
  "pk": "cb64025a-9a20-4939-95c6-b54929d5616b",
  "fields": {
    "created": "2024-05-25T14:17:00.124Z",
    "modified": "2024-05-25T14:17:00.124Z",
    "language": "304e1d76-9691-45fa-8285-ece2205c877c",
    "image": "languages/images/languages/images/es_7_4Qp8Iw2.jpg"
  }
},
{
  "model": "languages.languageimage",
  "pk": "d2f4fb0a-2590-47d3-b00b-116e05d66441",
  "fields": {
    "created": "2024-05-25T14:17:01.231Z",
    "modified": "2024-05-25T14:17:01.231Z",
    "language": "afd96460-dbcb-4e30-9b91-dfa4d49d5116",
    "image": "languages/images/languages/images/ru_4_r14oYTK.jpg"
  }
},
{
  "model": "languages.languageimage",
  "pk": "d555f17c-30bf-40f6-b9d5-455219959f5d",
  "fields": {
    "created": "2024-05-25T14:17:00.044Z",
    "modified": "2024-05-25T14:17:00.044Z",
    "language": "304e1d76-9691-45fa-8285-ece2205c877c",
    "image": "languages/images/languages/images/es_4_hubvZwT.jpg"
  }
},
{
  "model": "languages.languageimage",
  "pk": "d684c11a-bf0c-4859-b18f-327302026ac1",
  "fields": {
    "created": "2024-05-25T14:16:59.749Z",
    "modified": "2024-05-25T14:16:59.749Z",
    "language": "62f32d4c-1918-49a3-a41b-ae027a6f0d85",
    "image": "languages/images/languages/images/de_7_wredUxD.jpg"
  }
},
{
  "model": "languages.languageimage",
  "pk": "dd26f9aa-c512-4293-93f3-ddbf9c67aa46",
  "fields": {
    "created": "2024-05-25T14:17:00.300Z",
    "modified": "2024-05-25T14:17:00.300Z",
    "language": "2154e569-ebf7-49fe-9118-778257fab037",
    "image": "languages/images/languages/images/fr_2_Rj6LSDX.jpg"
  }
},
{
  "model": "languages.languageimage",
  "pk": "f6518fd4-0f88-4e9e-8b3a-3c9d708d6e10",
  "fields": {
    "created": "2024-05-25T14:16:59.718Z",
    "modified": "2024-05-25T14:16:59.718Z",
    "language": "62f32d4c-1918-49a3-a41b-ae027a6f0d85",
    "image": "languages/images/languages/images/de_5_QssZafU.jpg"
  }
},
{
  "model": "languages.languageimage",
  "pk": "fafa4384-ad88-46a6-bcb0-e074b078492a",
  "fields": {
    "created": "2024-05-25T14:16:59.671Z",
    "modified": "2024-05-25T14:16:59.671Z",
    "language": "62f32d4c-1918-49a3-a41b-ae027a6f0d85",
    "image": "languages/images/languages/images/de_3_GeFaZU9.jpg"
  }
},
{
  "model": "languages.languageimage",
  "pk": "fe9128b8-71c0-47c1-927b-4293c37a65b9",
  "fields": {
    "created": "2024-05-25T14:17:00.405Z",
    "modified": "2024-05-25T14:17:00.405Z",
    "language": "2154e569-ebf7-49fe-9118-778257fab037",
    "image": "languages/images/languages/images/fr_7_uVS6mIZ.jpg"
  }
},
{
  "model": "languages.languageimage",
  "pk": "fed495e7-a3eb-4033-b02c-9c1e3630fae9",
  "fields": {
    "created": "2024-05-25T14:16:59.893Z",
    "modified": "2024-05-25T14:16:59.893Z",
    "language": "849c9425-2a0d-4843-8adf-3c35092a19fa",
    "image": "languages/images/languages/images/en_5_5JJyATJ.jpg"
  }
},
{
  "model": "languages.languageimage",
  "pk": "ff1b5121-d951-4b9d-87cb-f1acf962d6e5",
  "fields": {
    "created": "2024-05-25T14:17:00.319Z",
    "modified": "2024-05-25T14:17:00.319Z",
    "language": "2154e569-ebf7-49fe-9118-778257fab037",
    "image": "languages/images/languages/images/fr_3_R7fyUMs.jpg"
  }
},
{
  "model": "exercises.exercise",
  "pk": "5c66d1da-9c27-4b47-af0a-72e9d616d266",
  "fields": {
    "created": "2024-05-25T14:17:30.283Z",
    "modified": "2024-05-25T14:17:30.291Z",
    "slug": "associate",
    "name": "Associate",
    "description": "Remember the word by association on time or in free mode, or choose the correct word association.",
    "constraint_description": "Only words with images.",
    "icon": "exercises/icons/exercises/icons/as_9TwdpHp.svg",
    "available": false,
    "hints_available": []
  }
},
{
  "model": "exercises.exercise",
  "pk": "e67fcb42-ac5f-4008-9f3e-1e10c6c1e61b",
  "fields": {
    "created": "2024-05-25T14:17:30.234Z",
    "modified": "2024-05-25T14:17:30.234Z",
    "slug": "translator",
    "name": "Translator",
    "description": "Translate a word on time or in free mode from your native language to the language you are learning and vice versa.",
    "constraint_description": "Only words with translations.",
    "icon": "exercises/icons/exercises/icons/tr_P0ghjsQ.svg",
    "available": true,
    "hints_available": [
      "c63ce8d4-04b3-49b5-b424-f07fe43ecd2a",
      "788c2ebb-53b2-46b9-a4c2-120766b43152",
      "5cc7b9d1-85c2-4592-849a-4acad4b6b10a",
      "1b84589b-8c0b-463e-9c10-0526ab8d6f2f",
      "c2dff7d7-a4db-46f0-ad4f-5c6a7760278a"
    ]
  }
},
{
  "model": "exercises.hint",
  "pk": "1b84589b-8c0b-463e-9c10-0526ab8d6f2f",
  "fields": {
    "created": "2024-05-25T14:17:30.199Z",
    "name": "Показать первую букву",
    "description": "Показывает первую букву случайного перевода этого слова",
    "code": "show_first_letter"
  }
},
{
  "model": "exercises.hint",
  "pk": "5cc7b9d1-85c2-4592-849a-4acad4b6b10a",
  "fields": {
    "created": "2024-05-25T14:17:30.201Z",
    "name": "Показать количество букв",
    "description": "Показывает количество букв случайного перевода этого слова",
    "code": "show_letters_amount"
  }
},
{
  "model": "exercises.hint",
  "pk": "788c2ebb-53b2-46b9-a4c2-120766b43152",
  "fields": {
    "created": "2024-05-25T14:17:30.217Z",
    "name": "Показать синоним",
    "description": "Показывает случайный синоним этого слова",
    "code": "show_synonym"
  }
},
{
  "model": "exercises.hint",
  "pk": "c2dff7d7-a4db-46f0-ad4f-5c6a7760278a",
  "fields": {
    "created": "2024-05-25T14:17:30.167Z",
    "name": "Показать ассоциацию",
    "description": "Показывает случайную ассоциацию этого слова",
    "code": "show_association"
  }
},
{
  "model": "exercises.hint",
  "pk": "c63ce8d4-04b3-49b5-b424-f07fe43ecd2a",
  "fields": {
    "created": "2024-05-25T14:17:30.225Z",
    "name": "Убрать вариант",
    "description": "Показывает один неправильный вариант ответа из предложенных",
    "code": "remove_incorrect"
  }
}
]
